,index,Latitude_x,Longitude_x,index_x,join_key,MRT.Name,Latitude_y,Longitude_y,index_y,euclidean_distance,coordinate_pair,distance,duration,centroid_name
0,168,1.4324773882709496,103.7913216676051,0,A,WOODLANDS MRT STATION,1.436057617,103.7879388,81,0.5476241356139664,"coordinate_pair(lat_x=1.4324773882709496, lon_x=103.7913216676051, lat_y=1.436057617, lon_y=103.7879388)",2.006,13.366666666666667,503A WOODLANDS DRIVE 14
1,312,1.349428009750324,103.87584367374164,1,A,SERANGOON MRT STATION,1.350633615,103.8727717,31,0.36686353110241715,"coordinate_pair(lat_x=1.349428009750324, lon_x=103.87584367374164, lat_y=1.350633615, lon_y=103.8727717)",0.444,3.5166666666666666,419 SERANGOON CENTRAL
2,373,1.3626193754768163,103.74593959900368,2,A,BUKIT GOMBAK MRT STATION,1.358611591,103.7517909,45,0.7884712653896858,"coordinate_pair(lat_x=1.3626193754768163, lon_x=103.74593959900368, lat_y=1.358611591, lon_y=103.7517909)",1.701,10.8,420 BUKIT BATOK WEST AVENUE 2
3,676,1.3480371710809351,103.9456495181096,3,A,TAMPINES WEST MRT STATION,1.345633658,103.9384925,19,0.8392932702940318,"coordinate_pair(lat_x=1.3480371710809351, lon_x=103.9456495181096, lat_y=1.345633658, lon_y=103.9384925)",1.009,6.133333333333334,103 TAMPINES STREET 11
4,822,1.2943824558480614,103.81046267406816,4,A,QUEENSTOWN MRT STATION,1.294550852,103.8060772,120,0.487877481295763,"coordinate_pair(lat_x=1.2943824558480614, lon_x=103.81046267406816, lat_y=1.294550852, lon_y=103.8060772)",1.206,7.5,DAWSON VISTA
5,1017,1.4021416943464815,103.89272023174956,5,A,SOO TECK LRT STATION,1.405323319,103.8972905,28,0.6190827090474262,"coordinate_pair(lat_x=1.4021416943464815, lon_x=103.89272023174956, lat_y=1.405323319, lon_y=103.8972905)",0.828,5.383333333333334,MATILDA EDGE
6,1128,1.420390256668904,103.84115735254449,6,A,KHATIB MRT STATION,1.41738337,103.8329799,17,0.9685524683482338,"coordinate_pair(lat_x=1.420390256668904, lon_x=103.84115735254449, lat_y=1.41738337, lon_y=103.8329799)",1.424,8.9,664 YISHUN AVENUE 4
7,1240,1.3519580162695448,103.703863368823,7,A,BOON LAY MRT STATION,1.338610339,103.7060849,124,1.5045991296193149,"coordinate_pair(lat_x=1.3519580162695448, lon_x=103.703863368823, lat_y=1.338610339, lon_y=103.7060849)",1.949,12.433333333333334,WENYA
8,1560,1.3365152581552813,103.85257763525732,8,A,TOA PAYOH MRT STATION,1.332596728,103.8475773,86,0.7062818539128511,"coordinate_pair(lat_x=1.3365152581552813, lon_x=103.85257763525732, lat_y=1.332596728, lon_y=103.8475773)",1.709,11.216666666666667,TOA PAYOH VISTA
9,1576,1.3171248251194296,103.87774943658017,9,A,ALJUNIED MRT STATION,1.316432612,103.882906,9,0.5783767895476879,"coordinate_pair(lat_x=1.3171248251194296, lon_x=103.87774943658017, lat_y=1.316432612, lon_y=103.882906)",0.974,6.083333333333333,PAN-I COMPLEX
10,1788,1.3108222206834323,103.76079382526086,10,A,CLEMENTI MRT STATION,1.315116253,103.7651915,40,0.6833568574855209,"coordinate_pair(lat_x=1.3108222206834323, lon_x=103.76079382526086, lat_y=1.315116253, lon_y=103.7651915)",7.531,47.13333333333333,WEST COAST VISTA
11,2074,1.361745454987451,103.95284147050111,11,A,TAMPINES EAST MRT STATION,1.356191483,103.9546345,21,0.6489417403002482,"coordinate_pair(lat_x=1.361745454987451, lon_x=103.95284147050111, lat_y=1.356191483, lon_y=103.9546345)",1.297,8.233333333333333,482 TAMPINES STREET 43
12,2102,1.3662038012058704,103.8486010062186,12,A,ANG MO KIO MRT STATION,1.369428557,103.8494552,52,0.37093602877634835,"coordinate_pair(lat_x=1.3662038012058704, lon_x=103.8486010062186, lat_y=1.369428557, lon_y=103.8494552)",0.598,4.116666666666666,TECK GHEE EVERGREEN
13,2411,1.3860395324405113,103.76018649582376,13,A,SENJA LRT STATION,1.382725471,103.7623443,66,0.4396969155903079,"coordinate_pair(lat_x=1.3860395324405113, lon_x=103.76018649582376, lat_y=1.382725471, lon_y=103.7623443)",0.728,4.766666666666667,SENJA GRAND
14,2453,1.3871543749976811,103.90472237219862,14,A,BAKAU LRT STATION,1.387994311,103.9054153,115,0.1210626241817784,"coordinate_pair(lat_x=1.3871543749976811, lon_x=103.90472237219862, lat_y=1.387994311, lon_y=103.9054153)",0.727,4.75,RIVERVALE BANK
15,2634,1.3337226968701588,103.91459957502391,15,A,BEDOK NORTH MRT STATION,1.334742117,103.9179783,150,0.3923276356194425,"coordinate_pair(lat_x=1.3337226968701588, lon_x=103.91459957502391, lat_y=1.334742117, lon_y=103.9179783)",1.3,8.7,EUNOS GROVE
16,2933,1.4518009084572183,103.81963219252881,16,A,SEMBAWANG MRT STATION,1.449050822,103.8200461,96,0.3092375722082676,"coordinate_pair(lat_x=1.4518009084572183, lon_x=103.81963219252881, lat_y=1.449050822, lon_y=103.8200461)",0.604,3.966666666666667,417 CANBERRA ROAD
17,3036,1.273025222215572,103.82389154448728,17,A,HARBOURFRONT MRT STATION,1.265389384,103.8215302,129,0.8887197546813705,"coordinate_pair(lat_x=1.273025222215572, lon_x=103.82389154448728, lat_y=1.265389384, lon_y=103.8215302)",1.365,8.266666666666667,LOWER DELTA ROAD
18,3184,1.3824019198044433,103.74175241364358,18,A,CHOA CHU KANG LRT STATION,1.384755411,103.7445377,127,0.4053999587009107,"coordinate_pair(lat_x=1.3824019198044433, lon_x=103.74175241364358, lat_y=1.384755411, lon_y=103.7445377)",0.595,4.233333333333333,KEAT HONG LAUREL
19,3391,1.3758127822588984,103.88277936840002,19,A,HOUGANG MRT STATION,1.371292266,103.8923805,7,1.179734824846969,"coordinate_pair(lat_x=1.3758127822588984, lon_x=103.88277936840002, lat_y=1.371292266, lon_y=103.8923805)",1.71,11.066666666666666,CI YUAN COMMUNITY CLUB
20,3533,1.3492579183060975,103.73067562265308,20,A,CHINESE GARDEN MRT STATION,1.342244948,103.7327666,47,0.8137123415230576,"coordinate_pair(lat_x=1.3492579183060975, lon_x=103.73067562265308, lat_y=1.342244948, lon_y=103.7327666)",1.809,12.166666666666666,JURONG POLYCLINIC
21,3728,1.312928634749774,103.85367021648912,21,A,FARRER PARK MRT STATION,1.3131403,103.8547547,35,0.12283336230254727,"coordinate_pair(lat_x=1.312928634749774, lon_x=103.85367021648912, lat_y=1.3131403, lon_y=103.8547547)",0.224,1.6666666666666667,CONNEXION
22,3966,1.3451758746856304,103.69332980757287,22,A,PIONEER MRT STATION,1.337587011,103.6973216,99,0.953405083230666,"coordinate_pair(lat_x=1.3451758746856304, lon_x=103.69332980757287, lat_y=1.337587011, lon_y=103.6973216)",1.305,8.216666666666667,828 JURONG WEST STREET 81
23,4136,1.376999330122905,103.94157129192764,23,A,PASIR RIS MRT STATION,1.37300805,103.9492651,11,0.9635597941483924,"coordinate_pair(lat_x=1.376999330122905, lon_x=103.94157129192764, lat_y=1.37300805, lon_y=103.9492651)",1.615,10.416666666666666,OASIS @ ELIAS
24,4358,1.3958822676347806,103.87872013506778,24,A,THANGGAM LRT STATION,1.397318156,103.8756352,88,0.37827439391489387,"coordinate_pair(lat_x=1.3958822676347806, lon_x=103.87872013506778, lat_y=1.397318156, lon_y=103.8756352)",0.601,3.683333333333333,SENGKANG WEST WAY
25,4419,1.4044127878154387,103.90767593702245,25,A,DAMAI LRT STATION,1.405234836,103.9086035,119,0.13779286646608488,"coordinate_pair(lat_x=1.4044127878154387, lon_x=103.90767593702245, lat_y=1.405234836, lon_y=103.9086035)",0.41,2.783333333333333,PUNGGOL LODGE
26,4560,1.3289725854321912,103.93537427563926,26,A,BEDOK RESERVOIR MRT STATION,1.33660783,103.9322346,151,0.917942168567669,"coordinate_pair(lat_x=1.3289725854321912, lon_x=103.93537427563926, lat_y=1.33660783, lon_y=103.9322346)",1.412,9.166666666666666,137 BEDOK NORTH AVENUE 3
27,4795,1.3403476951181015,103.74495034275768,27,A,JURONG EAST MRT STATION,1.33315262,103.7422865,149,0.8530999296642439,"coordinate_pair(lat_x=1.3403476951181015, lon_x=103.74495034275768, lat_y=1.33315262, lon_y=103.7422865)",1.495,9.283333333333333,TOH GUAN GROVE
28,4939,1.3061011997379577,103.79978237134024,28,A,COMMONWEALTH MRT STATION,1.302501999,103.7982285,117,0.43589987047774287,"coordinate_pair(lat_x=1.3061011997379577, lon_x=103.79978237134024, lat_y=1.302501999, lon_y=103.7982285)",0.548,3.4166666666666665,COMMONWEALTH 16
29,5168,1.4292367250306883,103.77408592349828,29,A,MARSILING MRT STATION,1.432521149,103.7740746,15,0.36521345146346423,"coordinate_pair(lat_x=1.4292367250306883, lon_x=103.77408592349828, lat_y=1.432521149, lon_y=103.7740746)",0.533,3.2666666666666666,417 WOODLANDS STREET 41
30,5362,1.3135906442596297,103.89636720879246,30,A,PAYA LEBAR MRT STATION,1.31719912,103.8923649,1,0.5991243268305549,"coordinate_pair(lat_x=1.3135906442596297, lon_x=103.89636720879246, lat_y=1.31719912, lon_y=103.8923649)",0.768,6.6,HAIG VIEW
31,5597,1.3968814538039696,103.74663950198192,31,A,YEW TEE MRT STATION,1.397297711,103.7473577,77,0.09228320278064747,"coordinate_pair(lat_x=1.3968814538039696, lon_x=103.74663950198192, lat_y=1.397297711, lon_y=103.7473577)",0.181,1.1166666666666667,YEWTEE POINT
32,5600,1.440681641599151,103.79773334236516,32,A,ADMIRALTY MRT STATION,1.440588562,103.8009905,12,0.36221282514881564,"coordinate_pair(lat_x=1.440681641599151, lon_x=103.79773334236516, lat_y=1.440588562, lon_y=103.8009905)",0.414,2.9833333333333334,710 WOODLANDS DRIVE 70
33,5859,1.3287249832086492,103.72249327909466,33,A,LAKESIDE MRT STATION,1.344259115,103.7209491,93,1.7358252559915397,"coordinate_pair(lat_x=1.3287249832086492, lon_x=103.72249327909466, lat_y=1.344259115, lon_y=103.7209491)",2.617,16.733333333333334,158 YUNG LOH ROAD
34,6101,1.3559005167995315,103.93737476409096,34,A,TAMPINES WEST MRT STATION,1.345633658,103.9384925,19,1.1483643811152948,"coordinate_pair(lat_x=1.3559005167995315, lon_x=103.93737476409096, lat_y=1.345633658, lon_y=103.9384925)",1.406,9.033333333333333,TAMPINES SUNRISE
35,6284,1.283249842538977,103.82571417986028,35,A,TIONG BAHRU MRT STATION,1.286102536,103.8274451,87,0.3710053098549222,"coordinate_pair(lat_x=1.283249842538977, lon_x=103.82571417986028, lat_y=1.286102536, lon_y=103.8274451)",0.548,3.6333333333333333,MEMBINA COURT
36,6376,1.3045215983768328,103.91456498442368,36,A,KEMBANGAN MRT STATION,1.321038134,103.9129479,13,1.845331780955028,"coordinate_pair(lat_x=1.3045215983768328, lon_x=103.91456498442368, lat_y=1.321038134, lon_y=103.9129479)",2.619,16.533333333333335,MARINE TERRACE BREEZE
37,6541,1.3757582509028432,103.89486799426156,37,A,HOUGANG MRT STATION,1.371292266,103.8923805,7,0.568390937762984,"coordinate_pair(lat_x=1.3757582509028432, lon_x=103.89486799426156, lat_y=1.371292266, lon_y=103.8923805)",0.92,6.766666666666667,420 HOUGANG AVENUE 10
38,6824,1.4334656524684517,103.8301430011276,38,A,YISHUN MRT STATION,1.429443085,103.835005,78,0.701545087250735,"coordinate_pair(lat_x=1.4334656524684517, lon_x=103.8301430011276, lat_y=1.429443085, lon_y=103.835005)",1.745,11.333333333333334,CHONG PANG VIEW
39,6964,1.3469887154108573,103.95390900850254,39,A,SIMEI MRT STATION,1.343197079,103.9533772,30,0.4257353180714457,"coordinate_pair(lat_x=1.3469887154108573, lon_x=103.95390900850254, lat_y=1.343197079, lon_y=103.9533772)",0.707,5.1,126 SIMEI STREET 1
40,7013,1.3569266513530682,103.84735019364278,40,A,BISHAN MRT STATION,1.351315801,103.8491403,111,0.6548647977745218,"coordinate_pair(lat_x=1.3569266513530682, lon_x=103.84735019364278, lat_y=1.351315801, lon_y=103.8491403)",1.013,6.333333333333333,BISHAN ACTIVE PARK
41,7179,1.381709788057038,103.7705887041727,41,A,BANGKIT LRT STATION,1.38002223,103.7726474,54,0.29594607417578017,"coordinate_pair(lat_x=1.381709788057038, lon_x=103.7705887041727, lat_y=1.38002223, lon_y=103.7726474)",0.436,2.966666666666667,FAJAR HILLS
42,7461,1.3725514256581888,103.9569854671732,42,A,PASIR RIS MRT STATION,1.37300805,103.9492651,11,0.8597199213364421,"coordinate_pair(lat_x=1.3725514256581888, lon_x=103.9569854671732, lat_y=1.37300805, lon_y=103.9492651)",1.413,9.366666666666667,CASUARINA PRIMARY SCHOOL
43,7622,1.3690737741628887,103.83737359314524,43,A,MAYFLOWER MRT STATION,1.371463188,103.8365678,174,0.28038390618637515,"coordinate_pair(lat_x=1.3690737741628887, lon_x=103.83737359314524, lat_y=1.371463188, lon_y=103.8365678)",0.645,4.1,KEBUN BARU PALM VIEW
44,7714,1.3226198803704479,103.86129903653968,44,A,BOON KENG MRT STATION,1.319939577,103.8620527,69,0.3095881782763618,"coordinate_pair(lat_x=1.3226198803704479, lon_x=103.86129903653968, lat_y=1.319939577, lon_y=103.8620527)",0.668,6.833333333333333,3 SAINT GEORGE'S ROAD
45,8040,1.3275510825784262,103.90183478438554,45,A,UBI MRT STATION,1.32997426,103.8992267,85,0.39580138669512344,"coordinate_pair(lat_x=1.3275510825784262, lon_x=103.90183478438554, lat_y=1.32997426, lon_y=103.8992267)",0.756,4.683333333333334,MANJUSRI SECONDARY SCHOOL
46,8072,1.348189034486812,103.7513324699828,46,A,BUKIT BATOK MRT STATION,1.349033312,103.7495665,41,0.21760500581688894,"coordinate_pair(lat_x=1.348189034486812, lon_x=103.7513324699828, lat_y=1.349033312, lon_y=103.7495665)",0.706,4.716666666666667,644A BUKIT BATOK CENTRAL
47,8309,1.351840999086742,103.71864380857033,47,A,LAKESIDE MRT STATION,1.344259115,103.7209491,93,0.881155028684135,"coordinate_pair(lat_x=1.351840999086742, lon_x=103.71864380857033, lat_y=1.344259115, lon_y=103.7209491)",1.539,10.783333333333333,451 JURONG WEST STREET 42
48,8470,1.3215987687663329,103.739603107817,48,A,JURONG EAST MRT STATION,1.33315262,103.7422865,149,1.3189059319050902,"coordinate_pair(lat_x=1.3215987687663329, lon_x=103.739603107817, lat_y=1.33315262, lon_y=103.7422865)",2.67,16.833333333333332,TEBAN PLACE
49,8709,1.3929355444866551,103.89280301499218,49,A,SENGKANG LRT STATION,1.391609364,103.8954426,128,0.32839328559405556,"coordinate_pair(lat_x=1.3929355444866551, lon_x=103.89280301499218, lat_y=1.391609364, lon_y=103.8954426)",0.607,4.016666666666667,323 SENGKANG EAST WAY
50,8765,1.3375863284393408,103.7019233109752,50,A,BOON LAY MRT STATION,1.338610339,103.7060849,124,0.47642811021501646,"coordinate_pair(lat_x=1.3375863284393408, lon_x=103.7019233109752, lat_y=1.338610339, lon_y=103.7060849)",0.883,5.516666666666667,MULTI STOREY CAR PARK
51,8957,1.2855382001095763,103.84177430019191,51,A,CHINATOWN MRT STATION,1.284223919,103.8451438,104,0.4020762278349433,"coordinate_pair(lat_x=1.2855382001095763, lon_x=103.84177430019191, lat_y=1.284223919, lon_y=103.8451438)",1.16,8.516666666666667,PEARL'S HILL CARE HOME
52,9225,1.283666961910063,103.8170127356597,52,A,REDHILL MRT STATION,1.289634534,103.816741,37,0.6642509780639335,"coordinate_pair(lat_x=1.283666961910063, lon_x=103.8170127356597, lat_y=1.289634534, lon_y=103.816741)",2.235,14.5,163 BUKIT MERAH CENTRAL
53,9432,1.2742046059839796,103.810983773026,53,A,TELOK BLANGAH MRT STATION,1.270706478,103.8097616,168,0.4120198886568362,"coordinate_pair(lat_x=1.2742046059839796, lon_x=103.810983773026, lat_y=1.270706478, lon_y=103.8097616)",0.613,4.05,BLANGAH VIEW
54,9492,1.3975614519124175,103.90672415709751,54,A,COVE LRT STATION,1.399281988,103.9059619,10,0.2092396111381791,"coordinate_pair(lat_x=1.3975614519124175, lon_x=103.90672415709751, lat_y=1.399281988, lon_y=103.9059619)",0.249,1.5166666666666666,107A EDGEFIELD PLAINS
55,9691,1.3643491861018473,103.89148275702132,55,A,HOUGANG MRT STATION,1.371292266,103.8923805,7,0.7784585334091745,"coordinate_pair(lat_x=1.3643491861018473, lon_x=103.89148275702132, lat_y=1.371292266, lon_y=103.8923805)",1.153,7.333333333333333,HOUGANG VIEW
56,9838,1.3209578915311426,103.76958129000876,56,A,CLEMENTI MRT STATION,1.315116253,103.7651915,40,0.8124446585616129,"coordinate_pair(lat_x=1.3209578915311426, lon_x=103.76958129000876, lat_y=1.315116253, lon_y=103.7651915)",2.001,13.083333333333334,EAST LODGE CLEMENTI
57,10106,1.4176575961825648,103.90280758613748,57,A,SAMUDERA LRT STATION,1.415901722,103.9021563,94,0.20823483355616226,"coordinate_pair(lat_x=1.4176575961825648, lon_x=103.90280758613748, lat_y=1.415901722, lon_y=103.9021563)",0.577,3.683333333333333,NORTHSHORE RESIDENCES II
58,10240,1.3295323283941647,103.88689926933428,58,A,MACPHERSON MRT STATION,1.326150245,103.8892986,146,0.4610526287948847,"coordinate_pair(lat_x=1.3295323283941647, lon_x=103.88689926933428, lat_y=1.326150245, lon_y=103.8892986)",0.674,4.466666666666667,BALAM GARDENS
59,10499,1.4271940529260363,103.85158594775211,59,A,YISHUN MRT STATION,1.429443085,103.835005,78,1.8600327430769306,"coordinate_pair(lat_x=1.4271940529260363, lon_x=103.85158594775211, lat_y=1.429443085, lon_y=103.835005)",4.006,25.166666666666668,CASA SPRING @ YISHUN
60,10578,1.4159659620025002,103.83414554338896,60,A,KHATIB MRT STATION,1.41738337,103.8329799,17,0.20403403836140954,"coordinate_pair(lat_x=1.4159659620025002, lon_x=103.83414554338896, lat_y=1.41738337, lon_y=103.8329799)",1.071,7.866666666666666,841 YISHUN STREET 81
61,10849,1.436643254262956,103.83779202669284,61,A,YISHUN MRT STATION,1.429443085,103.835005,78,0.8584730631988975,"coordinate_pair(lat_x=1.436643254262956, lon_x=103.83779202669284, lat_y=1.429443085, lon_y=103.835005)",1.301,8.383333333333333,293 YISHUN STREET 22
62,10930,1.3583035916342328,103.88606619683274,62,A,KOVAN MRT STATION,1.360179171,103.8850649,134,0.23639918905941193,"coordinate_pair(lat_x=1.3583035916342328, lon_x=103.88606619683274, lat_y=1.360179171, lon_y=103.8850649)",0.749,4.566666666666666,PAYA LEBAR KOVAN COMMUNITY CLUB (PENDING U/C)
63,11034,1.331158877705397,103.92511734443046,63,A,BEDOK NORTH MRT STATION,1.334742117,103.9179783,150,0.88801510281122,"coordinate_pair(lat_x=1.331158877705397, lon_x=103.92511734443046, lat_y=1.334742117, lon_y=103.9179783)",5.987,38.25,539 BEDOK NORTH STREET 3
64,11241,1.3946294481348587,103.91310356960057,64,A,CORAL EDGE LRT STATION,1.393909229,103.9125808,39,0.09894735737475213,"coordinate_pair(lat_x=1.3946294481348587, lon_x=103.91310356960057, lat_y=1.393909229, lon_y=103.9125808)",0.361,2.5833333333333335,PUNGGOL PLAZA
65,11405,1.3889995410271168,103.98795002672024,65,A,CHANGI AIRPORT MRT STATION,1.357478974,103.9878836,38,3.504934916888121,"coordinate_pair(lat_x=1.3889995410271168, lon_x=103.98795002672024, lat_y=1.357478974, lon_y=103.9878836)",10.699,66.18333333333334,4 CHANGI VILLAGE ROAD
66,11563,1.3481371699232108,103.85006389464333,66,A,BISHAN MRT STATION,1.351315801,103.8491403,111,0.3680577148780195,"coordinate_pair(lat_x=1.3481371699232108, lon_x=103.85006389464333, lat_y=1.351315801, lon_y=103.8491403)",0.468,3.1666666666666665,BISHAN SPRING
67,11896,1.3351261502425211,103.87209203229305,67,A,WOODLEIGH MRT STATION,1.339190045,103.8708183,80,0.47354877645489996,"coordinate_pair(lat_x=1.3351261502425211, lon_x=103.87209203229305, lat_y=1.339190045, lon_y=103.8708183)",0.6,3.7333333333333334,ALKAFF OASIS
68,12024,1.3875054447710005,103.89694162515364,68,A,RANGGUNG LRT STATION,1.384233559,103.8971947,95,0.364903156137455,"coordinate_pair(lat_x=1.3875054447710005, lon_x=103.89694162515364, lat_y=1.384233559, lon_y=103.8971947)",0.586,3.9166666666666665,COMPASSVALE PLACE
69,12113,1.311720531078266,103.76928038036944,69,A,CLEMENTI MRT STATION,1.315116253,103.7651915,40,0.5909158912586405,"coordinate_pair(lat_x=1.311720531078266, lon_x=103.76928038036944, lat_y=1.315116253, lon_y=103.7651915)",0.656,4.533333333333333,410 COMMONWEALTH AVENUE WEST
70,12276,1.3057662989339631,103.7833262606836,70,A,BUONA VISTA MRT STATION,1.307223708,103.7902535,102,0.7869407144573256,"coordinate_pair(lat_x=1.3057662989339631, lon_x=103.7833262606836, lat_y=1.307223708, lon_y=103.7902535)",1.424,8.766666666666667,DOVER PARKVIEW
71,12505,1.3682677771117435,103.87261119290233,71,A,KOVAN MRT STATION,1.360179171,103.8850649,134,1.6509075165500415,"coordinate_pair(lat_x=1.3682677771117435, lon_x=103.87261119290233, lat_y=1.360179171, lon_y=103.8850649)",2.452,15.75,146 SERANGOON NORTH AVENUE 1
72,12675,1.3771997075669322,103.74885140244201,72,A,KEAT HONG LRT STATION,1.378603251,103.7490557,125,0.15771061178875592,"coordinate_pair(lat_x=1.3771997075669322, lon_x=103.74885140244201, lat_y=1.378603251, lon_y=103.7490557)",1.414,10.383333333333333,KEAT HONG MIRAGE
73,12830,1.3893162106689907,103.8741652100297,73,A,FERNVALE LRT STATION,1.391885892,103.8763086,112,0.3720409604204997,"coordinate_pair(lat_x=1.3893162106689907, lon_x=103.8741652100297, lat_y=1.391885892, lon_y=103.8763086)",1.097,7.216666666666667,FERN SPRING
74,13043,1.4312364378004543,103.77995549763844,74,A,MARSILING MRT STATION,1.432521149,103.7740746,15,0.669148159913909,"coordinate_pair(lat_x=1.4312364378004543, lon_x=103.77995549763844, lat_y=1.432521149, lon_y=103.7740746)",1.046,6.516666666666667,324 WOODLANDS STREET 32
75,13274,1.354335696061895,103.96033447016262,75,A,TAMPINES EAST MRT STATION,1.356191483,103.9546345,21,0.6663854560558237,"coordinate_pair(lat_x=1.354335696061895, lon_x=103.96033447016262, lat_y=1.356191483, lon_y=103.9546345)",1.351,9.0,TAMPINES MART
76,13393,1.4444321332667944,103.77276908813832,76,A,MARSILING MRT STATION,1.432521149,103.7740746,15,1.3323678146457973,"coordinate_pair(lat_x=1.4444321332667944, lon_x=103.77276908813832, lat_y=1.432521149, lon_y=103.7740746)",2.067,13.233333333333333,MULTI STOREY CAR PARK
77,13498,1.3569337613764818,103.74014740478052,77,A,BUKIT GOMBAK MRT STATION,1.358611591,103.7517909,45,1.3077108360337133,"coordinate_pair(lat_x=1.3569337613764818, lon_x=103.74014740478052, lat_y=1.358611591, lon_y=103.7517909)",1.711,10.883333333333333,WEST EDGE @ BUKIT BATOK
78,13810,1.3322993070082307,103.84965522660332,78,A,TOA PAYOH MRT STATION,1.332596728,103.8475773,86,0.2333478849036865,"coordinate_pair(lat_x=1.3322993070082307, lon_x=103.84965522660332, lat_y=1.332596728, lon_y=103.8475773)",1.046,7.216666666666667,TOA PAYOH CENTRAL
79,13998,1.37980801926143,103.84150197259844,79,A,YIO CHU KANG MRT STATION,1.381498825,103.8451707,79,0.44907569742166903,"coordinate_pair(lat_x=1.37980801926143, lon_x=103.84150197259844, lat_y=1.381498825, lon_y=103.8451707)",0.689,5.066666666666666,YIO CHU KANG VIEW
80,14099,1.3019409521652276,103.88362078428372,80,A,MOUNTBATTEN MRT STATION,1.306201905,103.8825281,67,0.4891194171355607,"coordinate_pair(lat_x=1.3019409521652276, lon_x=103.88362078428372, lat_y=1.306201905, lon_y=103.8825281)",0.842,6.133333333333334,DI TANJONG RHU
81,14343,1.441772483199321,103.79032077692509,81,A,WOODLANDS MRT STATION,1.436057617,103.7879388,81,0.6884208212709538,"coordinate_pair(lat_x=1.441772483199321, lon_x=103.79032077692509, lat_y=1.436057617, lon_y=103.7879388)",2.49,16.316666666666666,818 WOODLANDS STREET 82
82,14503,1.3192285155957597,103.94557010130274,82,A,TANAH MERAH MRT STATION,1.327310982,103.9464517,171,0.9040569119637382,"coordinate_pair(lat_x=1.3192285155957597, lon_x=103.94557010130274, lat_y=1.327310982, lon_y=103.9464517)",2.726,16.9,SIGLAP EAST
83,14636,1.3819207343422384,103.94369230175448,83,A,PASIR RIS MRT STATION,1.37300805,103.9492651,11,1.1687326089469199,"coordinate_pair(lat_x=1.3819207343422384, lon_x=103.94369230175448, lat_y=1.37300805, lon_y=103.9492651)",2.492,15.95,PASIR RIS BEACH PARK
84,14707,1.3387079613008284,103.77362882572064,84,A,BEAUTY WORLD MRT STATION,1.34090149,103.7757467,73,0.3389988004294202,"coordinate_pair(lat_x=1.3387079613008284, lon_x=103.77362882572064, lat_y=1.34090149, lon_y=103.7757467)",0.488,3.2,BEEH LOW SEE TEMPLE
85,14994,1.4011713380623023,103.90169484277304,85,A,PUNGGOL LRT STATION,1.405194701,103.9024119,97,0.4544229620783042,"coordinate_pair(lat_x=1.4011713380623023, lon_x=103.90169484277304, lat_y=1.405194701, lon_y=103.9024119)",1.643,10.4,MASJID AL-ISLAH
86,15065,1.3433715679969556,103.7061269124601,86,A,BOON LAY MRT STATION,1.338610339,103.7060849,124,0.529445108036764,"coordinate_pair(lat_x=1.3433715679969556, lon_x=103.7061269124601, lat_y=1.338610339, lon_y=103.7060849)",0.83,5.7,693 JURONG WEST CENTRAL 1
87,15368,1.3767856843293131,103.7397419371452,87,A,SOUTH VIEW LRT STATION,1.380298287,103.7452918,27,0.7301835507753259,"coordinate_pair(lat_x=1.3767856843293131, lon_x=103.7397419371452, lat_y=1.380298287, lon_y=103.7452918)",0.764,4.666666666666667,SUNSHINE GARDENS
88,15574,1.4299664525108295,103.84339056805456,88,A,YISHUN MRT STATION,1.429443085,103.835005,78,0.9339572309185844,"coordinate_pair(lat_x=1.4299664525108295, lon_x=103.84339056805456, lat_y=1.429443085, lon_y=103.835005)",2.262,14.033333333333333,YISHUN RIVERGREEN
89,15659,1.3381532057455416,103.7214787907682,89,A,LAKESIDE MRT STATION,1.344259115,103.7209491,93,0.6814947047595873,"coordinate_pair(lat_x=1.3381532057455416, lon_x=103.7214787907682, lat_y=1.344259115, lon_y=103.7209491)",1.053,7.1,339B KANG CHING ROAD
90,15911,1.3786624206904408,103.87905320236814,90,A,TONGKANG LRT STATION,1.389347947,103.8858442,84,1.4077085249010608,"coordinate_pair(lat_x=1.3786624206904408, lon_x=103.87905320236814, lat_y=1.389347947, lon_y=103.8858442)",3.202,19.916666666666668,969 HOUGANG STREET 91
91,15939,1.3272195838463068,103.85756876136954,91,A,BOON KENG MRT STATION,1.319939577,103.8620527,69,0.9506579532351244,"coordinate_pair(lat_x=1.3272195838463068, lon_x=103.85756876136954, lat_y=1.319939577, lon_y=103.8620527)",2.685,16.833333333333332,WHAMPOA GARDENS
92,16122,1.3503717236066928,103.74588045392116,92,A,BUKIT BATOK MRT STATION,1.349033312,103.7495665,41,0.43594570565352064,"coordinate_pair(lat_x=1.3503717236066928, lon_x=103.74588045392116, lat_y=1.349033312, lon_y=103.7495665)",0.734,5.066666666666666,132 BUKIT BATOK WEST AVENUE 6
93,16343,1.3870133069886323,103.76546498208116,93,A,JELAPANG LRT STATION,1.38673927,103.7645341,126,0.10787226695132902,"coordinate_pair(lat_x=1.3870133069886323, lon_x=103.76546498208116, lat_y=1.38673927, lon_y=103.7645341)",0.598,3.8333333333333335,PANGSHAN VALLEY
94,16478,1.4452151368879849,103.83174594896865,94,A,CANBERRA MRT STATION,1.443076641,103.8297026,157,0.3288398473149771,"coordinate_pair(lat_x=1.4452151368879849, lon_x=103.83174594896865, lat_y=1.443076641, lon_y=103.8297026)",0.755,4.883333333333334,EASTWAVE @ CANBERRA
95,16776,1.3494336785880316,103.9333539237946,95,A,TAMPINES WEST MRT STATION,1.345633658,103.9384925,19,0.7105218250159817,"coordinate_pair(lat_x=1.3494336785880316, lon_x=103.9333539237946, lat_y=1.345633658, lon_y=103.9384925)",1.114,7.0,826 TAMPINES STREET 81
96,16909,1.2756419763680185,103.83950412311589,96,A,OUTRAM PARK MRT STATION,1.279739707,103.8395135,103,0.45564804940530307,"coordinate_pair(lat_x=1.2756419763680185, lon_x=103.83950412311589, lat_y=1.279739707, lon_y=103.8395135)",0.833,5.416666666666667,CANTONMENT PRIMARY SCHOOL
97,16977,1.37213791124516,103.85732023968573,97,A,ANG MO KIO MRT STATION,1.369428557,103.8494552,52,0.9247517836169763,"coordinate_pair(lat_x=1.37213791124516, lon_x=103.85732023968573, lat_y=1.369428557, lon_y=103.8494552)",3.558,22.35,CHENG SAN PLACE
98,17235,1.305827281281948,103.86231291663341,98,A,LAVENDER MRT STATION,1.307377817,103.8627676,4,0.17966810329481522,"coordinate_pair(lat_x=1.305827281281948, lon_x=103.86231291663341, lat_y=1.307377817, lon_y=103.8627676)",0.869,5.533333333333333,CRAWFORD LANE
99,17474,1.3609124046648151,103.95803394649506,99,A,TAMPINES EAST MRT STATION,1.356191483,103.9546345,21,0.6468147033211441,"coordinate_pair(lat_x=1.3609124046648151, lon_x=103.95803394649506, lat_y=1.356191483, lon_y=103.9546345)",1.249,7.95,487C TAMPINES STREET 45
100,17613,1.3753673909478197,103.77359719316692,100,A,PENDING LRT STATION,1.376135743,103.7712612,130,0.27336958752657586,"coordinate_pair(lat_x=1.3753673909478197, lon_x=103.77359719316692, lat_y=1.376135743, lon_y=103.7712612)",0.486,3.2,221 PENDING ROAD
101,17697,1.344916917136854,103.75741220184112,101,A,BUKIT BATOK MRT STATION,1.349033312,103.7495665,41,0.9849744894662801,"coordinate_pair(lat_x=1.344916917136854, lon_x=103.75741220184112, lat_y=1.349033312, lon_y=103.7495665)",1.334,8.9,SPRING VIEW
102,18022,1.4024676694109992,103.75019483844864,102,A,YEW TEE MRT STATION,1.397297711,103.7473577,77,0.6557015051216388,"coordinate_pair(lat_x=1.4024676694109992, lon_x=103.75019483844864, lat_y=1.397297711, lon_y=103.7473577)",0.792,4.933333333333334,666 CHOA CHU KANG CRESCENT
103,18096,1.3993617199290949,103.91813155822196,103,A,KADALOOR LRT STATION,1.399509106,103.916575,48,0.1738041451852893,"coordinate_pair(lat_x=1.3993617199290949, lon_x=103.91813155822196, lat_y=1.399509106, lon_y=103.916575)",0.52,3.65,WATERWAY PRIMARY SCHOOL
104,18200,1.4431417600860352,103.80693659397264,104,A,ADMIRALTY MRT STATION,1.440588562,103.8009905,12,0.7193587147852767,"coordinate_pair(lat_x=1.4431417600860352, lon_x=103.80693659397264, lat_y=1.440588562, lon_y=103.8009905)",0.91,6.883333333333334,688B WOODLANDS DRIVE 75
105,18418,1.3086360272035835,103.88541244775529,105,A,DAKOTA MRT STATION,1.308547984,103.8890647,3,0.40612401947798576,"coordinate_pair(lat_x=1.3086360272035835, lon_x=103.88541244775529, lat_y=1.308547984, lon_y=103.8890647)",0.628,4.116666666666666,MULTI STOREY CAR PARK
106,18701,1.3618978283662635,103.93583456325216,106,A,TAMPINES WEST MRT STATION,1.345633658,103.9384925,19,1.8324705372480274,"coordinate_pair(lat_x=1.3618978283662635, lon_x=103.93583456325216, lat_y=1.345633658, lon_y=103.9384925)",2.351,15.116666666666667,TAMPINES GREENRIDGES
107,18836,1.3693959421083555,103.949647487418,107,A,PASIR RIS MRT STATION,1.37300805,103.9492651,11,0.4038911361592127,"coordinate_pair(lat_x=1.3693959421083555, lon_x=103.949647487418, lat_y=1.37300805, lon_y=103.9492651)",0.736,4.883333333333334,566 PASIR RIS STREET 51
108,19024,1.3833032291361167,103.89545404394303,108,A,RANGGUNG LRT STATION,1.384233559,103.8971947,95,0.21941298438977885,"coordinate_pair(lat_x=1.3833032291361167, lon_x=103.89545404394303, lat_y=1.384233559, lon_y=103.8971947)",0.526,3.566666666666667,NORTH VISTA PRIMARY SCHOOL
109,19114,1.2996168042710607,103.79796868984572,109,A,COMMONWEALTH MRT STATION,1.302501999,103.7982285,117,0.3221164668419587,"coordinate_pair(lat_x=1.2996168042710607, lon_x=103.79796868984572, lat_y=1.302501999, lon_y=103.7982285)",0.922,9.416666666666666,TANGLIN HALT FOOD CENTRE
110,19276,1.308622750600233,103.79401320563068,110,A,BUONA VISTA MRT STATION,1.307223708,103.7902535,102,0.44596432851365475,"coordinate_pair(lat_x=1.308622750600233, lon_x=103.79401320563068, lat_y=1.307223708, lon_y=103.7902535)",0.73,4.683333333333334,HOLLAND VISTA
111,19539,1.377157412896861,103.76738624176596,111,A,PETIR LRT STATION,1.377772043,103.7666458,123,0.10698473838779321,"coordinate_pair(lat_x=1.377157412896861, lon_x=103.76738624176596, lat_y=1.377772043, lon_y=103.7666458)",0.112,0.7666666666666667,109 GANGSA ROAD
112,19737,1.3526955949960908,103.87208186186216,112,A,SERANGOON MRT STATION,1.350633615,103.8727717,31,0.24176583276944924,"coordinate_pair(lat_x=1.3526955949960908, lon_x=103.87208186186216, lat_y=1.350633615, lon_y=103.8727717)",0.284,1.7833333333333334,BRADDELL HEIGHTS COMMUNITY HUB
113,19785,1.3353585240789,103.93660330019505,113,A,BEDOK RESERVOIR MRT STATION,1.33660783,103.9322346,151,0.5051228497923065,"coordinate_pair(lat_x=1.3353585240789, lon_x=103.93660330019505, lat_y=1.33660783, lon_y=103.9322346)",0.962,6.483333333333333,MULTI STOREY CAR PARK
114,19988,1.3045182588389768,103.76417746044278,114,A,CLEMENTI MRT STATION,1.315116253,103.7651915,40,1.1838224616781874,"coordinate_pair(lat_x=1.3045182588389768, lon_x=103.76417746044278, lat_y=1.315116253, lon_y=103.7651915)",8.456,52.61666666666667,727 CLEMENTI WEST STREET 2
115,20140,1.3440905883320242,103.70255473700657,115,A,BOON LAY MRT STATION,1.338610339,103.7060849,124,0.7248029115129838,"coordinate_pair(lat_x=1.3440905883320242, lon_x=103.70255473700657, lat_y=1.338610339, lon_y=103.7060849)",1.774,11.116666666666667,671A JURONG WEST STREET 65
116,20402,1.4104582805095245,103.89901090097152,116,A,NIBONG LRT STATION,1.411854477,103.9003395,43,0.2142766765105366,"coordinate_pair(lat_x=1.4104582805095245, lon_x=103.89901090097152, lat_y=1.411854477, lon_y=103.9003395)",0.223,1.95,PIERMONT GRAND
117,20624,1.356867879838095,103.94653560074487,117,A,TAMPINES EAST MRT STATION,1.356191483,103.9546345,21,0.9034402765911418,"coordinate_pair(lat_x=1.356867879838095, lon_x=103.94653560074487, lat_y=1.356191483, lon_y=103.9546345)",2.089,13.433333333333334,TAMPINES NORTH COMMUNITY CLUB
118,20772,1.2872510490477802,103.80745467480816,118,A,QUEENSTOWN MRT STATION,1.294550852,103.8060772,120,0.8260188825142629,"coordinate_pair(lat_x=1.2872510490477802, lon_x=103.80745467480816, lat_y=1.294550852, lon_y=103.8060772)",2.417,15.683333333333334,BRICKWORKS ESTATE
119,20898,1.313588946032592,103.87226653774702,119,A,KALLANG MRT STATION,1.31148891,103.8713865,121,0.2531782098928875,"coordinate_pair(lat_x=1.313588946032592, lon_x=103.87226653774702, lat_y=1.31148891, lon_y=103.8713865)",0.453,3.2666666666666666,KALLANG HEIGHTS
120,21054,1.3172689747485051,103.8070580447481,120,A,FARRER ROAD MRT STATION,1.317439152,103.8073792,148,0.040406234859887875,"coordinate_pair(lat_x=1.3172689747485051, lon_x=103.8070580447481, lat_y=1.317439152, lon_y=103.8073792)",0.039,0.23333333333333334,FARRER ROAD MRT STATION
121,21324,1.356948580106044,103.95260944585569,121,A,TAMPINES EAST MRT STATION,1.356191483,103.9546345,21,0.24033907902143023,"coordinate_pair(lat_x=1.356948580106044, lon_x=103.95260944585569, lat_y=1.356191483, lon_y=103.9546345)",0.795,4.983333333333333,450D TAMPINES STREET 42
122,21482,1.3877880612070277,103.77113132592812,122,A,SEGAR LRT STATION,1.387785087,103.7695997,71,0.1702593980499123,"coordinate_pair(lat_x=1.3877880612070277, lon_x=103.77113132592812, lat_y=1.387785087, lon_y=103.7695997)",0.405,2.9166666666666665,SEGAR MEADOWS
123,21525,1.435566123626416,103.7984696563486,123,A,ADMIRALTY MRT STATION,1.440588562,103.8009905,12,0.6248278070938873,"coordinate_pair(lat_x=1.435566123626416, lon_x=103.7984696563486, lat_y=1.440588562, lon_y=103.8009905)",1.422,8.9,662 WOODLANDS RING ROAD
124,21733,1.3412897099140313,103.73776486083258,124,A,CHINESE GARDEN MRT STATION,1.342244948,103.7327666,47,0.565690382075354,"coordinate_pair(lat_x=1.3412897099140313, lon_x=103.73776486083258, lat_y=1.342244948, lon_y=103.7327666)",1.302,8.833333333333334,231 JURONG EAST STREET 21
125,21886,1.3001754928952323,103.85261752754148,125,A,BENCOOLEN MRT STATION,1.298918434,103.8503538,141,0.28786439424843646,"coordinate_pair(lat_x=1.3001754928952323, lon_x=103.85261752754148, lat_y=1.298918434, lon_y=103.8503538)",0.374,2.433333333333333,FORTUNE CENTRE
126,22166,1.3420858957952733,103.69820792668644,126,A,PIONEER MRT STATION,1.337587011,103.6973216,99,0.5098637195133631,"coordinate_pair(lat_x=1.3420858957952733, lon_x=103.69820792668644, lat_y=1.337587011, lon_y=103.6973216)",0.761,5.133333333333334,636 JURONG WEST STREET 65
127,22242,1.340246889111359,103.84736998160729,127,A,BRADDELL MRT STATION,1.340469001,103.8467991,33,0.06809826210323237,"coordinate_pair(lat_x=1.340246889111359, lon_x=103.84736998160729, lat_y=1.340469001, lon_y=103.8467991)",0.377,2.4833333333333334,BRADDELL HOUSE
128,22493,1.4414773872761129,103.77700330853932,128,A,MARSILING MRT STATION,1.432521149,103.7740746,15,1.0477497574291181,"coordinate_pair(lat_x=1.4414773872761129, lon_x=103.77700330853932, lat_y=1.432521149, lon_y=103.7740746)",2.182,14.833333333333334,MARSILING GARDENS
129,22686,1.3764410471296462,103.93532540342808,129,A,PASIR RIS MRT STATION,1.37300805,103.9492651,11,1.5959039191782236,"coordinate_pair(lat_x=1.3764410471296462, lon_x=103.93532540342808, lat_y=1.37300805, lon_y=103.9492651)",2.91,19.016666666666666,MERIDIAN PRIMARY SCHOOL
130,22899,1.365527974839832,103.96192213040476,130,A,TAMPINES EAST MRT STATION,1.356191483,103.9546345,21,1.3168488064205122,"coordinate_pair(lat_x=1.365527974839832, lon_x=103.96192213040476, lat_y=1.356191483, lon_y=103.9546345)",1.797,10.966666666666667,WHITE SANDS PRIMARY SCHOOL
131,23000,1.3802018490424155,103.75238828775416,131,A,KEAT HONG LRT STATION,1.378603251,103.7490557,125,0.4108982927022988,"coordinate_pair(lat_x=1.3802018490424155, lon_x=103.75238828775416, lat_y=1.378603251, lon_y=103.7490557)",0.65,4.45,138 TECK WHYE LANE
132,23176,1.3244800559305867,103.91086108698852,132,A,KEMBANGAN MRT STATION,1.321038134,103.9129479,13,0.4475412009653495,"coordinate_pair(lat_x=1.3244800559305867, lon_x=103.91086108698852, lat_y=1.321038134, lon_y=103.9129479)",0.486,2.933333333333333,KEMBANGAN GARDENS
133,23380,1.40302773351769,103.91363269662236,133,A,OASIS LRT STATION,1.40228668,103.9127274,42,0.13006627991796024,"coordinate_pair(lat_x=1.40302773351769, lon_x=103.91363269662236, lat_y=1.40228668, lon_y=103.9127274)",0.716,4.633333333333334,OASIS TERRACES
134,23516,1.3692446831352711,103.89673146398728,134,A,HOUGANG MRT STATION,1.371292266,103.8923805,7,0.5345765636507218,"coordinate_pair(lat_x=1.3692446831352711, lon_x=103.89673146398728, lat_y=1.371292266, lon_y=103.8923805)",1.093,6.783333333333333,HOUGANG MEADOW
135,23630,1.3349199323312244,103.87983998471915,135,A,BARTLEY MRT STATION,1.342501178,103.8801779,70,0.8438325783310391,"coordinate_pair(lat_x=1.3349199323312244, lon_x=103.87983998471915, lat_y=1.342501178, lon_y=103.8801779)",1.348,8.633333333333333,JOO SENG GREEN
136,23872,1.3310703635361827,103.9105270220288,136,A,KAKI BUKIT MRT STATION,1.33496736,103.9084593,143,0.49051637662754455,"coordinate_pair(lat_x=1.3310703635361827, lon_x=103.9105270220288, lat_y=1.33496736, lon_y=103.9084593)",0.615,4.016666666666667,EUNOS VISTA
137,24045,1.319622234935913,103.74844957129432,137,A,JURONG EAST MRT STATION,1.33315262,103.7422865,149,1.653160128427,"coordinate_pair(lat_x=1.319622234935913, lon_x=103.74844957129432, lat_y=1.33315262, lon_y=103.7422865)",1.912,11.95,PANDAN GARDENS
138,24216,1.3769906866785988,103.88740001950951,138,A,HOUGANG MRT STATION,1.371292266,103.8923805,7,0.8414372106836167,"coordinate_pair(lat_x=1.3769906866785988, lon_x=103.88740001950951, lat_y=1.371292266, lon_y=103.8923805)",1.764,11.216666666666667,HOUGANG SPRING
139,24451,1.3876362125316875,103.89230308539994,139,A,RENJONG LRT STATION,1.38670059,103.8906213,5,0.21394938634869337,"coordinate_pair(lat_x=1.3876362125316875, lon_x=103.89230308539994, lat_y=1.38670059, lon_y=103.8906213)",0.299,2.0,MULTI STOREY CAR PARK
140,24562,1.2873053155075924,103.83124558172256,140,A,HAVELOCK MRT STATION,1.28850524,103.8335858,161,0.29237444546610725,"coordinate_pair(lat_x=1.2873053155075924, lon_x=103.83124558172256, lat_y=1.28850524, lon_y=103.8335858)",0.416,2.65,BUKIT HO SWEE VIEW
141,24753,1.4219328516149332,103.8342614561949,141,A,KHATIB MRT STATION,1.41738337,103.8329799,17,0.5255552793159645,"coordinate_pair(lat_x=1.4219328516149332, lon_x=103.8342614561949, lat_y=1.41738337, lon_y=103.8329799)",0.818,5.116666666666666,KHATIB VALE
142,25017,1.358578531558104,103.8312574689162,142,A,UPPER THOMSON MRT STATION,1.354416434,103.8328985,173,0.497459432025407,"coordinate_pair(lat_x=1.358578531558104, lon_x=103.8312574689162, lat_y=1.354416434, lon_y=103.8328985)",1.038,6.666666666666667,SIN MING COURT
143,25105,1.351900278087288,103.88714922992672,143,A,KOVAN MRT STATION,1.360179171,103.8850649,134,0.9492821407489671,"coordinate_pair(lat_x=1.351900278087288, lon_x=103.88714922992672, lat_y=1.360179171, lon_y=103.8850649)",2.371,14.383333333333333,129 LORONG AH SOO
144,25284,1.3458054936786623,103.71665313225688,144,A,LAKESIDE MRT STATION,1.344259115,103.7209491,93,0.507571130232911,"coordinate_pair(lat_x=1.3458054936786623, lon_x=103.71665313225688, lat_y=1.344259115, lon_y=103.7209491)",0.761,4.683333333333334,500 CORPORATION ROAD
145,25504,1.3899114203180352,103.90844068671731,145,A,RUMBIA LRT STATION,1.391468495,103.9059736,122,0.32432747429271713,"coordinate_pair(lat_x=1.3899114203180352, lon_x=103.90844068671731, lat_y=1.391468495, lon_y=103.9059736)",0.653,4.3,RIVERVALE DELTA
146,25599,1.3216963709335439,103.90258499594844,146,A,EUNOS MRT STATION,1.319783549,103.9032258,46,0.22430801718906856,"coordinate_pair(lat_x=1.3216963709335439, lon_x=103.90258499594844, lat_y=1.319783549, lon_y=103.9032258)",0.308,1.95,9 EUNOS CRESCENT
147,25874,1.3525209861385439,103.9504418181398,147,A,TAMPINES EAST MRT STATION,1.356191483,103.9546345,21,0.6195194988443049,"coordinate_pair(lat_x=1.3525209861385439, lon_x=103.9504418181398, lat_y=1.356191483, lon_y=103.9546345)",1.577,10.066666666666666,265 TAMPINES STREET 21
148,26053,1.3227396181800248,103.94022068265332,148,A,TANAH MERAH MRT STATION,1.327310982,103.9464517,171,0.8591719311669558,"coordinate_pair(lat_x=1.3227396181800248, lon_x=103.94022068265332, lat_y=1.327310982, lon_y=103.9464517)",1.045,6.516666666666667,MULTI STOREY CAR PARK
149,26208,1.4553415869529795,103.81542958660565,149,A,SEMBAWANG MRT STATION,1.449050822,103.8200461,96,0.8675501402079908,"coordinate_pair(lat_x=1.4553415869529795, lon_x=103.81542958660565, lat_y=1.449050822, lon_y=103.8200461)",1.328,8.7,482 ADMIRALTY LINK
150,26308,1.3222808862876692,103.86843063407994,150,A,GEYLANG BAHRU MRT STATION,1.321301102,103.8716226,139,0.3711846241864734,"coordinate_pair(lat_x=1.3222808862876692, lon_x=103.86843063407994, lat_y=1.321301102, lon_y=103.8716226)",0.763,5.9,59C GEYLANG BAHRU
151,26447,1.349874397888229,103.75674484430944,151,A,BUKIT BATOK MRT STATION,1.349033312,103.7495665,41,0.8034360475076313,"coordinate_pair(lat_x=1.349874397888229, lon_x=103.75674484430944, lat_y=1.349033312, lon_y=103.7495665)",3.211,20.4,GOMBAK VIEW
152,26733,1.450934280995836,103.82516230031416,152,A,SEMBAWANG MRT STATION,1.449050822,103.8200461,96,0.6060497154197397,"coordinate_pair(lat_x=1.450934280995836, lon_x=103.82516230031416, lat_y=1.449050822, lon_y=103.8200461)",0.758,5.183333333333334,280 KENYA CRESCENT
153,26797,1.3464473757208313,103.7434977674945,153,A,BUKIT BATOK MRT STATION,1.349033312,103.7495665,41,0.7333489302098267,"coordinate_pair(lat_x=1.3464473757208313, lon_x=103.7434977674945, lat_y=1.349033312, lon_y=103.7495665)",1.792,11.583333333333334,183 BUKIT BATOK WEST AVENUE 8
154,26960,1.3354911780761851,103.92737998600568,154,A,BEDOK RESERVOIR MRT STATION,1.33660783,103.9322346,151,0.5537616324780169,"coordinate_pair(lat_x=1.3354911780761851, lon_x=103.92737998600568, lat_y=1.33660783, lon_y=103.9322346)",1.864,11.733333333333333,PAN ISLAND EXPRESSWAY
155,27127,1.363162602100774,103.85411678653448,155,A,ANG MO KIO MRT STATION,1.369428557,103.8494552,52,0.8683193608141542,"coordinate_pair(lat_x=1.363162602100774, lon_x=103.85411678653448, lat_y=1.369428557, lon_y=103.8494552)",1.479,10.116666666666667,TECK GHEE HEARTLANDS
156,27301,1.3197570291249976,103.88524398979668,156,A,ALJUNIED MRT STATION,1.316432612,103.882906,9,0.4518819145630948,"coordinate_pair(lat_x=1.3197570291249976, lon_x=103.88524398979668, lat_y=1.316432612, lon_y=103.882906)",1.075,6.85,108 ALJUNIED CRESCENT
157,27647,1.3930155549374819,103.74703416282716,157,A,YEW TEE MRT STATION,1.397297711,103.7473577,77,0.4775103587970757,"coordinate_pair(lat_x=1.3930155549374819, lon_x=103.74703416282716, lat_y=1.397297711, lon_y=103.7473577)",0.937,5.883333333333334,MULTI STOREY CAR PARK
158,27824,1.4281731411757848,103.84676425991503,158,A,YISHUN MRT STATION,1.429443085,103.835005,78,1.314768812632119,"coordinate_pair(lat_x=1.4281731411757848, lon_x=103.84676425991503, lat_y=1.429443085, lon_y=103.835005)",3.454,22.05,398 YISHUN RING ROAD
159,27825,1.4479460100957011,103.80148472439492,159,A,ADMIRALTY MRT STATION,1.440588562,103.8009905,12,0.8199534177234507,"coordinate_pair(lat_x=1.4479460100957011, lon_x=103.80148472439492, lat_y=1.440588562, lon_y=103.8009905)",1.561,9.683333333333334,WOODLANDS DEW
160,28116,1.3413839035834612,103.69383412220128,160,A,PIONEER MRT STATION,1.337587011,103.6973216,99,0.5731906863341355,"coordinate_pair(lat_x=1.3413839035834612, lon_x=103.69383412220128, lat_y=1.337587011, lon_y=103.6973216)",0.623,3.75,968 JURONG WEST STREET 93
161,28261,1.3911680756745697,103.87835302031765,161,A,LAYAR LRT STATION,1.392079837,103.8800296,18,0.21216301556919379,"coordinate_pair(lat_x=1.3911680756745697, lon_x=103.87835302031765, lat_y=1.392079837, lon_y=103.8800296)",0.214,1.2833333333333334,PEI HWA SECONDARY SCHOOL
162,28511,1.392319881660584,103.88569515873348,162,A,TONGKANG LRT STATION,1.389347947,103.8858442,84,0.3308791063727575,"coordinate_pair(lat_x=1.392319881660584, lon_x=103.88569515873348, lat_y=1.389347947, lon_y=103.8858442)",0.43,2.716666666666667,MULTI STOREY CAR PARK
163,28676,1.3482832980261572,103.93904394346256,163,A,TAMPINES WEST MRT STATION,1.345633658,103.9384925,19,0.30093616574592125,"coordinate_pair(lat_x=1.3482832980261572, lon_x=103.93904394346256, lat_y=1.345633658, lon_y=103.9384925)",0.402,2.716666666666667,JUNYUAN PRIMARY SCHOOL
164,28811,1.3612805640207815,103.93970501613722,164,A,PASIR RIS MRT STATION,1.37300805,103.9492651,11,1.6822329975937944,"coordinate_pair(lat_x=1.3612805640207815, lon_x=103.93970501613722, lat_y=1.37300805, lon_y=103.9492651)",3.645,22.466666666666665,TAMPINES GREENVERGE
165,29041,1.343875915636728,103.95779739796367,165,A,UPPER CHANGI MRT STATION,1.341739774,103.9614728,82,0.47260149790798506,"coordinate_pair(lat_x=1.343875915636728, lon_x=103.95779739796367, lat_y=1.341739774, lon_y=103.9614728)",0.796,4.8,5 SIMEI LANE
166,29105,1.3927246134342532,103.87204675990245,166,A,FERNVALE LRT STATION,1.391885892,103.8763086,112,0.4828473888064087,"coordinate_pair(lat_x=1.3927246134342532, lon_x=103.87204675990245, lat_y=1.391885892, lon_y=103.8763086)",0.98,6.2,FERNVALE GLADES
167,29265,1.394430748737401,103.90349754719496,167,A,COMPASSVALE LRT STATION,1.394493045,103.9004925,16,0.3341188580428746,"coordinate_pair(lat_x=1.394430748737401, lon_x=103.90349754719496, lat_y=1.394493045, lon_y=103.9004925)",1.089,7.15,RIVERVALE GATEWAY
168,29493,1.4381062319006723,103.7798496556179,168,A,MARSILING MRT STATION,1.432521149,103.7740746,15,0.8931901153267634,"coordinate_pair(lat_x=1.4381062319006723, lon_x=103.7798496556179, lat_y=1.432521149, lon_y=103.7740746)",3.198,20.066666666666666,126 MARSILING RISE
169,29708,1.4462070138717247,103.81639750611036,169,A,SEMBAWANG MRT STATION,1.449050822,103.8200461,96,0.5142808726478204,"coordinate_pair(lat_x=1.4462070138717247, lon_x=103.81639750611036, lat_y=1.449050822, lon_y=103.8200461)",1.503,9.633333333333333,SEMBAWANG SECONDARY SCHOOL
170,29759,1.3258040401773907,103.92278782623345,170,A,BEDOK NORTH MRT STATION,1.334742117,103.9179783,150,1.12855068166559,"coordinate_pair(lat_x=1.3258040401773907, lon_x=103.92278782623345, lat_y=1.334742117, lon_y=103.9179783)",5.134,32.46666666666667,PING-AN GARDENS
171,30041,1.3480775262166287,103.69786754570892,171,A,PIONEER MRT STATION,1.337587011,103.6973216,99,1.1680697717057615,"coordinate_pair(lat_x=1.3480775262166287, lon_x=103.69786754570892, lat_y=1.337587011, lon_y=103.6973216)",1.863,11.8,GEK POH VILLE
172,30243,1.3749276451165235,103.74427015636898,172,A,SOUTH VIEW LRT STATION,1.380298287,103.7452918,27,0.6078910466705576,"coordinate_pair(lat_x=1.3749276451165235, lon_x=103.74427015636898, lat_y=1.380298287, lon_y=103.7452918)",0.976,6.466666666666667,KEAT HONG AXIS
173,30292,1.3380321250531613,103.8572763030006,173,A,BRADDELL MRT STATION,1.340469001,103.8467991,33,1.1957988601950134,"coordinate_pair(lat_x=1.3380321250531613, lon_x=103.8572763030006, lat_y=1.340469001, lon_y=103.8467991)",1.793,11.116666666666667,TOA PAYOH COURT
174,30603,1.3229399658864007,103.93475081515926,174,A,TANAH MERAH MRT STATION,1.327310982,103.9464517,171,1.3885716312699967,"coordinate_pair(lat_x=1.3229399658864007, lon_x=103.93475081515926, lat_y=1.327310982, lon_y=103.9464517)",2.752,17.05,MULTI STOREY CAR PARK
175,30709,1.3502525494718407,103.72466515417032,175,A,LAKESIDE MRT STATION,1.344259115,103.7209491,93,0.7840833720031274,"coordinate_pair(lat_x=1.3502525494718407, lon_x=103.72466515417032, lat_y=1.344259115, lon_y=103.7209491)",2.188,15.2,492 JURONG WEST STREET 41
176,30894,1.351700462224058,103.8379073632779,176,A,MARYMOUNT MRT STATION,1.348707263,103.8394231,136,0.3730490157487437,"coordinate_pair(lat_x=1.351700462224058, lon_x=103.8379073632779, lat_y=1.348707263, lon_y=103.8394231)",0.516,3.183333333333333,JADESCAPE
177,31134,1.2775902532183938,103.82004838309877,177,A,TIONG BAHRU MRT STATION,1.286102536,103.8274451,87,1.253808467086687,"coordinate_pair(lat_x=1.2775902532183938, lon_x=103.82004838309877, lat_y=1.286102536, lon_y=103.8274451)",2.451,15.166666666666666,10 TELOK BLANGAH CRESCENT
178,31173,1.3627951542605015,103.75072037426067,178,A,BUKIT GOMBAK MRT STATION,1.358611591,103.7517909,45,0.480171323690678,"coordinate_pair(lat_x=1.3627951542605015, lon_x=103.75072037426067, lat_y=1.358611591, lon_y=103.7517909)",1.135,7.433333333333334,345 BUKIT BATOK STREET 34
179,31399,1.3840486849738411,103.90046940649889,179,A,KANGKAR LRT STATION,1.383959117,103.9022254,98,0.1954545176636502,"coordinate_pair(lat_x=1.3840486849738411, lon_x=103.90046940649889, lat_y=1.383959117, lon_y=103.9022254)",0.303,1.95,RIVERVALE COURT
180,31502,1.3662625430688309,103.84369091606789,180,A,ANG MO KIO MRT STATION,1.369428557,103.8494552,52,0.7311155609279517,"coordinate_pair(lat_x=1.3662625430688309, lon_x=103.84369091606789, lat_y=1.369428557, lon_y=103.8494552)",0.907,5.75,206 ANG MO KIO AVENUE 1
181,31797,1.297145299929383,103.80440567595988,181,A,QUEENSTOWN MRT STATION,1.294550852,103.8060772,120,0.3431534480416342,"coordinate_pair(lat_x=1.297145299929383, lon_x=103.80440567595988, lat_y=1.294550852, lon_y=103.8060772)",0.365,4.966666666666667,SKYRESIDENCE @ DAWSON
182,31852,1.3709738116242183,103.84511535366347,182,A,ANG MO KIO MRT STATION,1.369428557,103.8494552,52,0.5121164252029159,"coordinate_pair(lat_x=1.3709738116242183, lon_x=103.84511535366347, lat_y=1.369428557, lon_y=103.8494552)",1.123,7.433333333333334,124 ANG MO KIO AVENUE 6
183,32184,1.289628102734533,103.82780263511467,183,A,TIONG BAHRU MRT STATION,1.286102536,103.8274451,87,0.39403483902353525,"coordinate_pair(lat_x=1.289628102734533, lon_x=103.82780263511467, lat_y=1.286102536, lon_y=103.8274451)",0.868,5.283333333333333,HAVELOCK VIEW
184,32215,1.3478205188149088,103.71058288777589,184,A,BOON LAY MRT STATION,1.338610339,103.7060849,124,1.1396703695575203,"coordinate_pair(lat_x=1.3478205188149088, lon_x=103.71058288777589, lat_y=1.338610339, lon_y=103.7060849)",1.323,8.55,CHURCH OF SAINT FRANCIS OF ASSISI
185,32375,1.4448691475158475,103.79556347980296,185,A,ADMIRALTY MRT STATION,1.440588562,103.8009905,12,0.7684308825217532,"coordinate_pair(lat_x=1.4448691475158475, lon_x=103.79556347980296, lat_y=1.440588562, lon_y=103.8009905)",1.373,8.566666666666666,748 WOODLANDS CIRCLE
186,32630,1.372936960702306,103.87529874437236,186,A,KOVAN MRT STATION,1.360179171,103.8850649,134,1.7863483010732883,"coordinate_pair(lat_x=1.372936960702306, lon_x=103.87529874437236, lat_y=1.360179171, lon_y=103.8850649)",3.436,21.7,ROSYTH SCHOOL
187,32899,1.4300775839166504,103.835246410066,187,A,YISHUN MRT STATION,1.429443085,103.835005,78,0.07548419191013599,"coordinate_pair(lat_x=1.4300775839166504, lon_x=103.835246410066, lat_y=1.429443085, lon_y=103.835005)",0.257,2.1666666666666665,YISHUN MRT STATION
188,33011,1.3747989664695413,103.94559286640919,188,A,PASIR RIS MRT STATION,1.37300805,103.9492651,11,0.4542000225817161,"coordinate_pair(lat_x=1.3747989664695413, lon_x=103.94559286640919, lat_y=1.37300805, lon_y=103.9492651)",1.107,7.583333333333333,ELIAS PARK PRIMARY SCHOOL
189,33089,1.322109946768817,103.85555183905691,189,A,BOON KENG MRT STATION,1.319939577,103.8620527,69,0.7619022195213783,"coordinate_pair(lat_x=1.322109946768817, lon_x=103.85555183905691, lat_y=1.319939577, lon_y=103.8620527)",2.005,12.5,WHAMPOA VIEW
190,33328,1.4157577625258515,103.84042051905315,190,A,KHATIB MRT STATION,1.41738337,103.8329799,17,0.8466278096357092,"coordinate_pair(lat_x=1.4157577625258515, lon_x=103.84042051905315, lat_y=1.41738337, lon_y=103.8329799)",1.692,10.983333333333333,ANGSANA BREEZE @ YISHUN
191,33550,1.288597993290928,103.81487928767083,191,A,REDHILL MRT STATION,1.289634534,103.816741,37,0.23689048154067788,"coordinate_pair(lat_x=1.288597993290928, lon_x=103.81487928767083, lat_y=1.289634534, lon_y=103.816741)",0.31,2.1666666666666665,59 LENGKOK BAHRU
192,33757,1.2810018041749545,103.81028110505753,192,A,TELOK BLANGAH MRT STATION,1.270706478,103.8097616,168,1.1462438431305433,"coordinate_pair(lat_x=1.2810018041749545, lon_x=103.81028110505753, lat_y=1.270706478, lon_y=103.8097616)",2.328,14.533333333333333,DEPOT HEIGHTS SHOPPING CENTRE
193,33917,1.4044173176579835,103.89716524408561,193,A,SOO TECK LRT STATION,1.405323319,103.8972905,28,0.10170039264504445,"coordinate_pair(lat_x=1.4044173176579835, lon_x=103.89716524408561, lat_y=1.405323319, lon_y=103.8972905)",0.207,1.5166666666666666,PUNGGOL SAPPHIRE
194,34067,1.3344649920368847,103.86592120254132,194,A,POTONG PASIR MRT STATION,1.331879714,103.8690579,92,0.4519113882841874,"coordinate_pair(lat_x=1.3344649920368847, lon_x=103.86592120254132, lat_y=1.331879714, lon_y=103.8690579)",0.986,6.883333333333334,133 POTONG PASIR AVENUE 1
195,34295,1.4303958525330611,103.79545897687478,195,A,WOODLANDS SOUTH MRT STATION,1.427488114,103.7927299,158,0.4433621087634012,"coordinate_pair(lat_x=1.4303958525330611, lon_x=103.79545897687478, lat_y=1.427488114, lon_y=103.7927299)",0.655,4.133333333333334,583 WOODLANDS DRIVE 16
196,34416,1.3413647634175148,103.6882791278445,196,A,PIONEER MRT STATION,1.337587011,103.6973216,99,1.0894438079113593,"coordinate_pair(lat_x=1.3413647634175148, lon_x=103.6882791278445, lat_y=1.337587011, lon_y=103.6973216)",1.553,10.216666666666667,NANYANG EMERALD
197,34624,1.3523301041048943,103.95601747151284,197,A,TAMPINES EAST MRT STATION,1.356191483,103.9546345,21,0.4560590322026709,"coordinate_pair(lat_x=1.3523301041048943, lon_x=103.95601747151284, lat_y=1.356191483, lon_y=103.9546345)",1.047,7.016666666666667,305 TAMPINES STREET 32
198,34716,1.3711972406544115,103.88497904944724,198,A,HOUGANG MRT STATION,1.371292266,103.8923805,7,0.8228359100818331,"coordinate_pair(lat_x=1.3711972406544115, lon_x=103.88497904944724, lat_y=1.371292266, lon_y=103.8923805)",1.006,6.366666666666666,678 HOUGANG AVENUE 8
199,34986,1.3844897743956048,103.8816430874234,199,A,TONGKANG LRT STATION,1.389347947,103.8858442,84,0.7140831218012605,"coordinate_pair(lat_x=1.3844897743956048, lon_x=103.8816430874234, lat_y=1.389347947, lon_y=103.8858442)",2.194,13.416666666666666,BUANGKOK SQUARE
200,35031,1.3972161999295154,103.89739902698456,200,A,CHENG LIM LRT STATION,1.396277633,103.8937972,49,0.41376403723338046,"coordinate_pair(lat_x=1.3972161999295154, lon_x=103.89739902698456, lat_y=1.396277633, lon_y=103.8937972)",1.059,7.833333333333333,COMPASSVALE LODGE
201,35242,1.3069895284265052,103.85441914432418,201,A,JALAN BESAR MRT STATION,1.305171388,103.8552957,144,0.22442610836482363,"coordinate_pair(lat_x=1.3069895284265052, lon_x=103.85441914432418, lat_y=1.305171388, lon_y=103.8552957)",0.33,2.8666666666666667,52 CHITTY ROAD
202,35510,1.3320956483398327,103.8572181738682,202,A,TOA PAYOH MRT STATION,1.332596728,103.8475773,86,1.073173793755117,"coordinate_pair(lat_x=1.3320956483398327, lon_x=103.8572181738682, lat_y=1.332596728, lon_y=103.8475773)",1.524,11.1,MULTI STOREY CAR PARK
203,35684,1.2797055285256302,103.82821650447652,203,A,TIONG BAHRU MRT STATION,1.286102536,103.8274451,87,0.7164653453914325,"coordinate_pair(lat_x=1.2797055285256302, lon_x=103.82821650447652, lat_y=1.286102536, lon_y=103.8274451)",0.969,6.383333333333334,KIM TIAN VISTA
204,35700,1.4437277903544683,103.80132464715813,204,A,ADMIRALTY MRT STATION,1.440588562,103.8009905,12,0.35103691099791895,"coordinate_pair(lat_x=1.4437277903544683, lon_x=103.80132464715813, lat_y=1.440588562, lon_y=103.8009905)",1.135,7.216666666666667,788B WOODLANDS CRESCENT
205,35986,1.3655011379940727,103.94206364576355,205,A,PASIR RIS MRT STATION,1.37300805,103.9492651,11,1.156561187232744,"coordinate_pair(lat_x=1.3655011379940727, lon_x=103.94206364576355, lat_y=1.37300805, lon_y=103.9492651)",4.461,27.883333333333333,TAMPINES GREENFOLIAGE
206,36218,1.4333021795996759,103.7854261157195,206,A,WOODLANDS MRT STATION,1.436057617,103.7879388,81,0.41459546638571704,"coordinate_pair(lat_x=1.4333021795996759, lon_x=103.7854261157195, lat_y=1.436057617, lon_y=103.7879388)",1.263,8.65,SI LING PRIMARY SCHOOL
207,36368,1.38160576899807,103.74653781389156,207,A,SOUTH VIEW LRT STATION,1.380298287,103.7452918,27,0.20080332394814523,"coordinate_pair(lat_x=1.38160576899807, lon_x=103.74653781389156, lat_y=1.380298287, lon_y=103.7452918)",0.645,4.05,SOUTH VIEW PRIMARY SCHOOL
208,36551,1.3539342738554414,103.93191446248495,208,A,TAMPINES WEST MRT STATION,1.345633658,103.9384925,19,1.1775474001762245,"coordinate_pair(lat_x=1.3539342738554414, lon_x=103.93191446248495, lat_y=1.345633658, lon_y=103.9384925)",1.672,10.7,TAMPINES VISTA
209,36686,1.3720176083168267,103.96171708660547,209,A,PASIR RIS MRT STATION,1.37300805,103.9492651,11,1.3885748358658787,"coordinate_pair(lat_x=1.3720176083168267, lon_x=103.96171708660547, lat_y=1.37300805, lon_y=103.9492651)",2.673,17.45,228 PASIR RIS STREET 21
210,36799,1.3028509456836117,103.9081389565616,210,A,EUNOS MRT STATION,1.319783549,103.9032258,46,1.9604378901663546,"coordinate_pair(lat_x=1.3028509456836117, lon_x=103.9081389565616, lat_y=1.319783549, lon_y=103.9032258)",5.009,30.766666666666666,MARINE PARADE PROMENADE
211,36958,1.3457632073342811,103.7326481281847,211,A,CHINESE GARDEN MRT STATION,1.342244948,103.7327666,47,0.3914342015918133,"coordinate_pair(lat_x=1.3457632073342811, lon_x=103.7326481281847, lat_y=1.342244948, lon_y=103.7327666)",1.654,11.616666666666667,315 JURONG EAST STREET 32
212,37114,1.317883587307786,103.86161373017907,212,A,BOON KENG MRT STATION,1.319939577,103.8620527,69,0.2337656427537999,"coordinate_pair(lat_x=1.317883587307786, lon_x=103.86161373017907, lat_y=1.319939577, lon_y=103.8620527)",0.328,2.183333333333333,BENDEMEER VILLE
213,37446,1.3422565031045823,103.87326193519652,213,A,WOODLEIGH MRT STATION,1.339190045,103.8708183,80,0.4359528832429462,"coordinate_pair(lat_x=1.3422565031045823, lon_x=103.87326193519652, lat_y=1.339190045, lon_y=103.8708183)",0.5,3.5,WOODLEIGH HILLSIDE
214,37524,1.3774602671501819,103.90200232420923,214,A,KANGKAR LRT STATION,1.383959117,103.9022254,98,0.7230644792888602,"coordinate_pair(lat_x=1.3774602671501819, lon_x=103.90200232420923, lat_y=1.383959117, lon_y=103.9022254)",1.034,6.366666666666666,UPPER SERANGOON CRESCENT
215,37635,1.331227712635909,103.93115292437344,215,A,BEDOK RESERVOIR MRT STATION,1.33660783,103.9322346,151,0.6102064218012084,"coordinate_pair(lat_x=1.331227712635909, lon_x=103.93115292437344, lat_y=1.33660783, lon_y=103.9322346)",1.035,6.4,KAKI BUKIT VILLE
216,37974,1.4219327921147635,103.84667599042902,216,A,YISHUN MRT STATION,1.429443085,103.835005,78,1.5428960095251938,"coordinate_pair(lat_x=1.4219327921147635, lon_x=103.84667599042902, lat_y=1.429443085, lon_y=103.835005)",2.833,18.266666666666666,439 YISHUN AVENUE 11
217,38045,1.3369528386807772,103.74001209192532,217,A,JURONG EAST MRT STATION,1.33315262,103.7422865,149,0.49242891433380753,"coordinate_pair(lat_x=1.3369528386807772, lon_x=103.74001209192532, lat_y=1.33315262, lon_y=103.7422865)",0.728,4.416666666666667,JURONG EAST CENTRAL
218,38275,1.2871709835697127,103.8207373485468,218,A,REDHILL MRT STATION,1.289634534,103.816741,37,0.5219273337614477,"coordinate_pair(lat_x=1.2871709835697127, lon_x=103.8207373485468, lat_y=1.289634534, lon_y=103.816741)",1.131,7.216666666666667,92 HENDERSON ROAD
219,38436,1.380417490693653,103.93747678784588,219,A,PASIR RIS MRT STATION,1.37300805,103.9492651,11,1.5479032680602889,"coordinate_pair(lat_x=1.380417490693653, lon_x=103.93747678784588, lat_y=1.37300805, lon_y=103.9492651)",2.556,16.85,702 PASIR RIS DRIVE 10
220,38562,1.284163986100058,103.8318431886355,220,A,HAVELOCK MRT STATION,1.28850524,103.8335858,161,0.5201456857820083,"coordinate_pair(lat_x=1.284163986100058, lon_x=103.8318431886355, lat_y=1.28850524, lon_y=103.8335858)",0.68,6.3,45 KIM CHENG STREET
221,38811,1.3817355029867255,103.76304253797421,221,A,SENJA LRT STATION,1.382725471,103.7623443,66,0.1346923221771802,"coordinate_pair(lat_x=1.3817355029867255, lon_x=103.76304253797421, lat_y=1.382725471, lon_y=103.7623443)",0.13,0.7833333333333333,PANSHAN GROVE
222,38888,1.3147597660190853,103.76572098111023,222,A,CLEMENTI MRT STATION,1.315116253,103.7651915,40,0.07096341203281709,"coordinate_pair(lat_x=1.3147597660190853, lon_x=103.76572098111023, lat_y=1.315116253, lon_y=103.7651915)",0.56,3.8666666666666667,CLEMENTI MRT STATION
223,39164,1.3431862355809616,103.95114769257339,223,A,SIMEI MRT STATION,1.343197079,103.9533772,30,0.24784472763119422,"coordinate_pair(lat_x=1.3431862355809616, lon_x=103.95114769257339, lat_y=1.343197079, lon_y=103.9533772)",0.393,2.6333333333333333,108 SIMEI STREET 1
224,39228,1.4493843568873743,103.83189862987246,224,A,CANBERRA MRT STATION,1.443076641,103.8297026,157,0.7426518853371299,"coordinate_pair(lat_x=1.4493843568873743, lon_x=103.83189862987246, lat_y=1.443076641, lon_y=103.8297026)",1.857,11.7,EASTBROOK @ CANBERRA
225,39465,1.3246432227355975,103.88695515720822,225,A,MACPHERSON MRT STATION,1.326150245,103.8892986,146,0.3097512675816146,"coordinate_pair(lat_x=1.3246432227355975, lon_x=103.88695515720822, lat_y=1.326150245, lon_y=103.8892986)",0.462,4.416666666666667,57 CIRCUIT ROAD
226,39630,1.357225594003586,103.89080466340172,226,A,KOVAN MRT STATION,1.360179171,103.8850649,134,0.7176164094822864,"coordinate_pair(lat_x=1.357225594003586, lon_x=103.89080466340172, lat_y=1.360179171, lon_y=103.8850649)",1.22,7.55,YUYING SECONDARY SCHOOL
227,39897,1.4019924127973107,103.74619446781605,227,A,YEW TEE MRT STATION,1.397297711,103.7473577,77,0.5378033960137745,"coordinate_pair(lat_x=1.4019924127973107, lon_x=103.74619446781605, lat_y=1.397297711, lon_y=103.7473577)",0.829,5.566666666666666,676 CHOA CHU KANG CRESCENT
228,39984,1.3341994655714746,103.72284247522684,228,A,LAKESIDE MRT STATION,1.344259115,103.7209491,93,1.138211703336657,"coordinate_pair(lat_x=1.3341994655714746, lon_x=103.72284247522684, lat_y=1.344259115, lon_y=103.7209491)",1.628,10.483333333333333,HO CHING ROAD
229,40186,1.3672213350228366,103.95569872510347,229,A,PASIR RIS MRT STATION,1.37300805,103.9492651,11,0.9620381583537004,"coordinate_pair(lat_x=1.3672213350228366, lon_x=103.95569872510347, lat_y=1.37300805, lon_y=103.9492651)",1.966,12.883333333333333,SITE OFFICE
230,40418,1.4375624552429842,103.79303549238426,230,A,WOODLANDS MRT STATION,1.436057617,103.7879388,81,0.5907421274991256,"coordinate_pair(lat_x=1.4375624552429842, lon_x=103.79303549238426, lat_y=1.436057617, lon_y=103.7879388)",1.609,10.9,TREETRAIL@WOODLANDS
231,40585,1.3360059311304935,103.8446622541132,231,A,TOA PAYOH MRT STATION,1.332596728,103.8475773,86,0.49871328598839465,"coordinate_pair(lat_x=1.3360059311304935, lon_x=103.8446622541132, lat_y=1.332596728, lon_y=103.8475773)",1.415,9.383333333333333,THE PEAK @ TOA PAYOH
232,40649,1.3174415186611363,103.89897194600712,232,A,EUNOS MRT STATION,1.319783549,103.9032258,46,0.539848762758156,"coordinate_pair(lat_x=1.3174415186611363, lon_x=103.89897194600712, lat_y=1.319783549, lon_y=103.9032258)",1.66,10.883333333333333,SRI GEYLANG SERAI
233,40777,1.372266947456476,103.8535672481216,233,A,ANG MO KIO MRT STATION,1.369428557,103.8494552,52,0.5554820723214764,"coordinate_pair(lat_x=1.372266947456476, lon_x=103.8535672481216, lat_y=1.369428557, lon_y=103.8494552)",3.313,21.05,PARK CENTRAL @ AMK
234,41124,1.42778398503801,103.82963501492203,234,A,YISHUN MRT STATION,1.429443085,103.835005,78,0.6247871472436793,"coordinate_pair(lat_x=1.42778398503801, lon_x=103.82963501492203, lat_y=1.429443085, lon_y=103.835005)",1.2,8.533333333333333,YISHUN SECONDARY SCHOOL
235,41138,1.345675041156425,103.85443467659944,235,A,BISHAN MRT STATION,1.351315801,103.8491403,111,0.8601132150905034,"coordinate_pair(lat_x=1.345675041156425, lon_x=103.85443467659944, lat_y=1.351315801, lon_y=103.8491403)",1.136,7.383333333333334,BISHAN GREEN
236,41460,1.3297069361967426,103.84379383324404,236,A,TOA PAYOH MRT STATION,1.332596728,103.8475773,86,0.5292900948456096,"coordinate_pair(lat_x=1.3297069361967426, lon_x=103.84379383324404, lat_y=1.332596728, lon_y=103.8475773)",1.035,7.616666666666666,PAN ISLAND EXPRESSWAY
237,41485,1.3259584232222412,103.92874568154573,237,A,BEDOK RESERVOIR MRT STATION,1.33660783,103.9322346,151,1.246057344297724,"coordinate_pair(lat_x=1.3259584232222412, lon_x=103.92874568154573, lat_y=1.33660783, lon_y=103.9322346)",1.984,12.45,BEDOK TOWN CENTRE
238,41793,1.3791265394068772,103.73659033225168,238,A,SOUTH VIEW LRT STATION,1.380298287,103.7452918,27,0.9760142941719758,"coordinate_pair(lat_x=1.3791265394068772, lon_x=103.73659033225168, lat_y=1.380298287, lon_y=103.7452918)",1.488,9.5,449 CHOA CHU KANG AVENUE 4
239,41851,1.31029504759364,103.78690061007192,239,A,BUONA VISTA MRT STATION,1.307223708,103.7902535,102,0.5055290352125472,"coordinate_pair(lat_x=1.31029504759364, lon_x=103.78690061007192, lat_y=1.307223708, lon_y=103.7902535)",0.907,5.8,18 GHIM MOH ROAD
240,42097,1.3765726373233027,103.83761377862686,240,A,MAYFLOWER MRT STATION,1.371463188,103.8365678,174,0.5799208761926523,"coordinate_pair(lat_x=1.3765726373233027, lon_x=103.83761377862686, lat_y=1.371463188, lon_y=103.8365678)",1.111,7.166666666666667,KEBUN BARU LINK 2
241,42241,1.3718408086163012,103.88051161228807,241,A,HOUGANG MRT STATION,1.371292266,103.8923805,7,1.3207911292241852,"coordinate_pair(lat_x=1.3718408086163012, lon_x=103.88051161228807, lat_y=1.371292266, lon_y=103.8923805)",1.669,10.616666666666667,647 HOUGANG AVENUE 8
242,42439,1.3529582037562533,103.86799142291387,242,A,LORONG CHUAN MRT STATION,1.351639278,103.8639457,135,0.4730468324471037,"coordinate_pair(lat_x=1.3529582037562533, lon_x=103.86799142291387, lat_y=1.351639278, lon_y=103.8639457)",0.949,6.116666666666666,CHUAN VILLAGE
243,42565,1.3929504243557125,103.89859379170105,243,A,COMPASSVALE LRT STATION,1.394493045,103.9004925,16,0.271976492426405,"coordinate_pair(lat_x=1.3929504243557125, lon_x=103.89859379170105, lat_y=1.394493045, lon_y=103.9004925)",0.393,2.4166666666666665,MULTI STOREY CAR PARK
244,42752,1.3971279983150324,103.88919346188892,244,A,FARMWAY LRT STATION,1.397170196,103.8893048,116,0.013236143583797788,"coordinate_pair(lat_x=1.3971279983150324, lon_x=103.88919346188892, lat_y=1.397170196, lon_y=103.8893048)",0.012,0.08333333333333333,FARMWAY LRT STATION
245,43012,1.356821791576001,103.87167359370822,245,A,SERANGOON MRT STATION,1.350633615,103.8727717,31,0.6988377219937316,"coordinate_pair(lat_x=1.356821791576001, lon_x=103.87167359370822, lat_y=1.350633615, lon_y=103.8727717)",0.923,5.783333333333333,SERANGOON AVENUE 4
246,43050,1.4388077562480677,103.80305139967076,246,A,ADMIRALTY MRT STATION,1.440588562,103.8009905,12,0.30280760028541487,"coordinate_pair(lat_x=1.4388077562480677, lon_x=103.80305139967076, lat_y=1.440588562, lon_y=103.8009905)",0.436,3.066666666666667,WOODLANDS GALAXY COMMUNITY CLUB
247,43278,1.3157576523111312,103.85019235237031,247,A,FARRER PARK MRT STATION,1.3131403,103.8547547,35,0.5847478450767196,"coordinate_pair(lat_x=1.3157576523111312, lon_x=103.85019235237031, lat_y=1.3131403, lon_y=103.8547547)",0.925,6.883333333333334,41 CAMBRIDGE ROAD
248,43435,1.391301179364254,103.74250296447904,248,A,CHOA CHU KANG MRT STATION,1.385363165,103.7443708,68,0.6921540417739075,"coordinate_pair(lat_x=1.391301179364254, lon_x=103.74250296447904, lat_y=1.385363165, lon_y=103.7443708)",1.856,12.066666666666666,518 CHOA CHU KANG STREET 51
249,43577,1.3733699031048503,103.84966699365253,249,A,ANG MO KIO MRT STATION,1.369428557,103.8494552,52,0.43888962898079426,"coordinate_pair(lat_x=1.3733699031048503, lon_x=103.84966699365253, lat_y=1.369428557, lon_y=103.8494552)",2.748,17.483333333333334,CHENG SAN CREST
250,43843,1.4350555623524217,103.77563094731104,250,A,MARSILING MRT STATION,1.432521149,103.7740746,15,0.3306801669507607,"coordinate_pair(lat_x=1.4350555623524217, lon_x=103.77563094731104, lat_y=1.432521149, lon_y=103.7740746)",1.321,8.616666666666667,MARSILING GREENVIEW
251,44040,1.3793761609541042,103.75658225860484,251,A,PHOENIX LRT STATION,1.378615451,103.7579956,8,0.17843431019041478,"coordinate_pair(lat_x=1.3793761609541042, lon_x=103.75658225860484, lat_y=1.378615451, lon_y=103.7579956)",0.569,3.7666666666666666,157 JALAN TECK WHYE
252,44120,1.3796252471299175,103.8906124812944,252,A,BUANGKOK MRT STATION,1.38287002,103.8931226,114,0.4561105002626003,"coordinate_pair(lat_x=1.3796252471299175, lon_x=103.8906124812944, lat_y=1.38287002, lon_y=103.8931226)",1.671,10.7,557 HOUGANG STREET 51
253,44397,1.292547407975447,103.80289573814171,253,A,QUEENSTOWN MRT STATION,1.294550852,103.8060772,120,0.41798540156751585,"coordinate_pair(lat_x=1.292547407975447, lon_x=103.80289573814171, lat_y=1.294550852, lon_y=103.8060772)",0.985,6.466666666666667,MEILING HEIGHTS
254,44452,1.3673649908268843,103.8560533405672,254,A,ANG MO KIO MRT STATION,1.369428557,103.8494552,52,0.7685245735153574,"coordinate_pair(lat_x=1.3673649908268843, lon_x=103.8560533405672, lat_y=1.369428557, lon_y=103.8494552)",1.058,7.05,CHONG BOON CENTRE
255,44638,1.3589579744781397,103.84330592969415,255,A,BISHAN MRT STATION,1.351315801,103.8491403,111,1.0689971316340765,"coordinate_pair(lat_x=1.3589579744781397, lon_x=103.84330592969415, lat_y=1.351315801, lon_y=103.8491403)",1.451,9.15,261 BISHAN STREET 22
256,44953,1.3271274396854027,103.94113253867144,256,A,TANAH MERAH MRT STATION,1.327310982,103.9464517,171,0.5916571793985114,"coordinate_pair(lat_x=1.3271274396854027, lon_x=103.94113253867144, lat_y=1.327310982, lon_y=103.9464517)",0.919,5.85,78 BEDOK NORTH ROAD
257,45149,1.4334740350089952,103.84148152916804,257,A,YISHUN MRT STATION,1.429443085,103.835005,78,0.8480595244175615,"coordinate_pair(lat_x=1.4334740350089952, lon_x=103.84148152916804, lat_y=1.429443085, lon_y=103.835005)",2.916,18.333333333333332,JUNCTION NINE
258,45169,1.3625673459624987,103.8350983802501,258,A,BRIGHT HILL MRT STATION,1.363846766,103.8338992,154,0.19496041539406828,"coordinate_pair(lat_x=1.3625673459624987, lon_x=103.8350983802501, lat_y=1.363846766, lon_y=103.8338992)",0.281,1.9166666666666667,MULTI STOREY CAR PARK
259,45458,1.4506137410246696,103.81567677594414,259,A,SEMBAWANG MRT STATION,1.449050822,103.8200461,96,0.5158472392346146,"coordinate_pair(lat_x=1.4506137410246696, lon_x=103.81567677594414, lat_y=1.449050822, lon_y=103.8200461)",0.643,4.5,CANBERRA PRIMARY SCHOOL
260,45522,1.3525439084419737,103.74058177367672,260,A,BUKIT BATOK MRT STATION,1.349033312,103.7495665,41,1.0723523339493917,"coordinate_pair(lat_x=1.3525439084419737, lon_x=103.74058177367672, lat_y=1.349033312, lon_y=103.7495665)",2.157,13.733333333333333,WEST VALLEY @ BUKIT BATOK
261,45791,1.3368045819102523,103.69613969827118,261,A,PIONEER MRT STATION,1.337587011,103.6973216,99,0.15758036609291462,"coordinate_pair(lat_x=1.3368045819102523, lon_x=103.69613969827118, lat_y=1.337587011, lon_y=103.6973216)",0.245,1.5666666666666667,653A JURONG WEST STREET 61
262,45930,1.3726826813731274,103.8714795857766,262,A,KOVAN MRT STATION,1.360179171,103.8850649,134,2.052724550741845,"coordinate_pair(lat_x=1.3726826813731274, lon_x=103.8714795857766, lat_y=1.360179171, lon_y=103.8850649)",2.809,17.883333333333333,549 SERANGOON NORTH AVENUE 3
263,46182,1.2756246496827492,103.80788172715494,263,A,TELOK BLANGAH MRT STATION,1.270706478,103.8097616,168,0.5854451426391881,"coordinate_pair(lat_x=1.2756246496827492, lon_x=103.80788172715494, lat_y=1.270706478, lon_y=103.8097616)",1.2,7.616666666666666,TELOK BLANGAH PARCVIEW
264,46361,1.3910348927823855,103.8886850065296,264,A,TONGKANG LRT STATION,1.389347947,103.8858442,84,0.3673005540761439,"coordinate_pair(lat_x=1.3910348927823855, lon_x=103.8886850065296, lat_y=1.389347947, lon_y=103.8858442)",0.833,5.2,ANCHORVALE GARDENS
265,46528,1.331932147905228,103.94015061212292,265,A,TANAH MERAH MRT STATION,1.327310982,103.9464517,171,0.8687270782924894,"coordinate_pair(lat_x=1.331932147905228, lon_x=103.94015061212292, lat_y=1.327310982, lon_y=103.9464517)",1.586,10.6,90 BEDOK NORTH STREET 4
266,46648,1.3989381012242923,103.91017661708035,266,A,MERIDIAN LRT STATION,1.39691205,103.9089502,44,0.26332515766449666,"coordinate_pair(lat_x=1.3989381012242923, lon_x=103.91017661708035, lat_y=1.39691205, lon_y=103.9089502)",0.75,4.933333333333334,189 PUNGGOL CENTRAL
267,46763,1.3208339730185668,103.76417456716128,267,A,CLEMENTI MRT STATION,1.315116253,103.7651915,40,0.6457537303882639,"coordinate_pair(lat_x=1.3208339730185668, lon_x=103.76417456716128, lat_y=1.315116253, lon_y=103.7651915)",0.699,4.2,CLEMENTI MEADOWS
268,46972,1.3325223761110725,103.90661003204185,268,A,KAKI BUKIT MRT STATION,1.33496736,103.9084593,143,0.34084256810629804,"coordinate_pair(lat_x=1.3325223761110725, lon_x=103.90661003204185, lat_y=1.33496736, lon_y=103.9084593)",0.547,3.3666666666666667,MULTI STOREY CAR PARK
269,47235,1.3354185604972366,103.84857162756762,269,A,TOA PAYOH MRT STATION,1.332596728,103.8475773,86,0.3326734062255555,"coordinate_pair(lat_x=1.3354185604972366, lon_x=103.84857162756762, lat_y=1.332596728, lon_y=103.8475773)",1.086,7.6,80 LORONG 4 TOA PAYOH
270,47383,1.4456123398319642,103.82110063793272,270,A,SEMBAWANG MRT STATION,1.449050822,103.8200461,96,0.39990773313052363,"coordinate_pair(lat_x=1.4456123398319642, lon_x=103.82110063793272, lat_y=1.449050822, lon_y=103.8200461)",0.939,6.416666666666667,SEMBAWANG PRIMARY SCHOOL
271,47491,1.372317014831866,103.89011604758184,271,A,HOUGANG MRT STATION,1.371292266,103.8923805,7,0.2763124801217584,"coordinate_pair(lat_x=1.372317014831866, lon_x=103.89011604758184, lat_y=1.371292266, lon_y=103.8923805)",0.357,2.4166666666666665,BEDOK RESERVOIR - PUNGGOL VALE
272,47609,1.336825641345256,103.921563443747,272,A,BEDOK NORTH MRT STATION,1.334742117,103.9179783,150,0.46098772694786905,"coordinate_pair(lat_x=1.336825641345256, lon_x=103.921563443747, lat_y=1.334742117, lon_y=103.9179783)",0.536,3.683333333333333,BELVIA
273,47798,1.3568611604325012,103.75033566388203,273,A,BUKIT GOMBAK MRT STATION,1.358611591,103.7517909,45,0.2530883090855063,"coordinate_pair(lat_x=1.3568611604325012, lon_x=103.75033566388203, lat_y=1.358611591, lon_y=103.7517909)",0.563,3.5166666666666666,526 BUKIT BATOK STREET 51
274,47953,1.3886487385831454,103.90167419669775,274,A,BAKAU LRT STATION,1.387994311,103.9054153,115,0.42218816805408044,"coordinate_pair(lat_x=1.3886487385831454, lon_x=103.90167419669775, lat_y=1.387994311, lon_y=103.9054153)",1.152,7.333333333333333,COMPASSVALE PLAINS
