,index,Latitude_x,Longitude_x,index_x,join_key,MRT.Name,Latitude_y,Longitude_y,index_y,euclidean_distance,coordinate_pair,distance,duration,centroid_name
0,80,1.3669599975831537,103.87798366999664,0,A,KOVAN MRT STATION,1.360179171,103.8850649,134,1.090022446026533,"coordinate_pair(lat_x=1.3669599975831537, lon_x=103.87798366999664, lat_y=1.360179171, lon_y=103.8850649)",1.449,9.75,NOUVELLE PARK
1,315,1.3303860408530015,103.7931586230639,1,A,SIXTH AVENUE MRT STATION,1.330857645,103.7969068,26,0.4199528555869807,"coordinate_pair(lat_x=1.3303860408530015, lon_x=103.7931586230639, lat_y=1.330857645, lon_y=103.7969068)",0.71,4.75,45 LILY AVENUE
2,426,1.3179313391052505,103.92630025524096,2,A,KEMBANGAN MRT STATION,1.321038134,103.9129479,13,1.5239913873576172,"coordinate_pair(lat_x=1.3179313391052505, lon_x=103.92630025524096, lat_y=1.321038134, lon_y=103.9129479)",1.939,13.416666666666666,OPERA ESTATE
3,622,1.371333423237411,103.83033586819448,3,A,MAYFLOWER MRT STATION,1.371463188,103.8365678,174,0.6929109628543193,"coordinate_pair(lat_x=1.371333423237411, lon_x=103.83033586819448, lat_y=1.371463188, lon_y=103.8365678)",0.911,6.016666666666667,SEMBAWANG HILLS ESTATE
4,801,1.3074546745785451,103.83408949483868,4,A,NEWTON MRT STATION,1.312318922,103.8379846,101,0.6928507499738659,"coordinate_pair(lat_x=1.3074546745785451, lon_x=103.83408949483868, lat_y=1.312318922, lon_y=103.8379846)",1.446,9.583333333333334,FAR EAST PLAZA
5,991,1.3522073150182796,103.69897696873652,5,A,PIONEER MRT STATION,1.337587011,103.6973216,99,1.6360852327181392,"coordinate_pair(lat_x=1.3522073150182796, lon_x=103.69897696873652, lat_y=1.337587011, lon_y=103.6973216)",2.682,17.283333333333335,WESTVILLE
6,1201,1.3610813799892179,103.93568581331722,6,A,TAMPINES WEST MRT STATION,1.345633658,103.9384925,19,1.7458142114153175,"coordinate_pair(lat_x=1.3610813799892179, lon_x=103.93568581331722, lat_y=1.345633658, lon_y=103.9384925)",2.989,19.5,TAMPINES GREENRIDGES
7,1253,1.4427103141569004,103.82493752346971,7,A,CANBERRA MRT STATION,1.443076641,103.8297026,157,0.5312482674748858,"coordinate_pair(lat_x=1.4427103141569004, lon_x=103.82493752346971, lat_y=1.443076641, lon_y=103.8297026)",2.602,16.816666666666666,THE NAUTICAL
8,1476,1.320769872488728,103.90996750267328,8,A,KEMBANGAN MRT STATION,1.321038134,103.9129479,13,0.3326570912240509,"coordinate_pair(lat_x=1.320769872488728, lon_x=103.90996750267328, lat_y=1.321038134, lon_y=103.9129479)",0.799,5.216666666666667,PALMERA EAST
9,1580,1.3446760199444403,103.88292912725798,9,A,BARTLEY MRT STATION,1.342501178,103.8801779,70,0.3898968454466653,"coordinate_pair(lat_x=1.3446760199444403, lon_x=103.88292912725798, lat_y=1.342501178, lon_y=103.8801779)",1.101,6.75,49 THRIFT DRIVE
10,1905,1.370095514365654,103.75231777178504,10,A,TECK WHYE LRT STATION,1.376684679,103.7537122,169,0.7488993055149168,"coordinate_pair(lat_x=1.370095514365654, lon_x=103.75231777178504, lat_y=1.376684679, lon_y=103.7537122)",1.078,7.5,PAVILION PARK
11,2002,1.29570534896298,103.76654269035792,11,A,KENT RIDGE MRT STATION,1.293536986,103.7845724,60,2.0187508310352493,"coordinate_pair(lat_x=1.29570534896298, lon_x=103.76654269035792, lat_y=1.293536986, lon_y=103.7845724)",2.847,17.583333333333332,THE SORRENTO
12,2239,1.339211278889422,103.95623835917428,12,A,SIMEI MRT STATION,1.343197079,103.9533772,30,0.5455167965246175,"coordinate_pair(lat_x=1.339211278889422, lon_x=103.95623835917428, lat_y=1.343197079, lon_y=103.9533772)",1.327,8.333333333333334,SUNBIRD VIEW
13,2448,1.388486242336907,103.85582612291624,13,A,YIO CHU KANG MRT STATION,1.381498825,103.8451707,79,1.4165714719651208,"coordinate_pair(lat_x=1.388486242336907, lon_x=103.85582612291624, lat_y=1.381498825, lon_y=103.8451707)",3.239,20.416666666666668,ALANA
14,2457,1.3348786991132526,103.76776350514965,14,A,BEAUTY WORLD MRT STATION,1.34090149,103.7757467,73,1.1117861693326951,"coordinate_pair(lat_x=1.3348786991132526, lon_x=103.76776350514965, lat_y=1.34090149, lon_y=103.7757467)",1.542,9.733333333333333,ENG KONG PARK
15,2668,1.2988396465710268,103.89046431021504,15,A,DAKOTA MRT STATION,1.308547984,103.8890647,3,1.0906726587991344,"coordinate_pair(lat_x=1.2988396465710268, lon_x=103.89046431021504, lat_y=1.308547984, lon_y=103.8890647)",2.653,16.75,7C BROADRICK ROAD
16,2952,1.329358184636402,103.80646636019348,16,A,TAN KAH KEE MRT STATION,1.326392241,103.8065482,172,0.329923345111002,"coordinate_pair(lat_x=1.329358184636402, lon_x=103.80646636019348, lat_y=1.326392241, lon_y=103.8065482)",2.143,13.15,RAFFLES GIRLS' PRIMARY SCHOOL
17,3132,1.2680605372692635,103.81365355360084,17,A,TELOK BLANGAH MRT STATION,1.270706478,103.8097616,168,0.5232175805556024,"coordinate_pair(lat_x=1.2680605372692635, lon_x=103.81365355360084, lat_y=1.270706478, lon_y=103.8097616)",0.675,4.2,KEPPEL GOLF LINKS
18,3299,1.361132977942751,103.96859150403844,18,A,TAMPINES EAST MRT STATION,1.356191483,103.9546345,21,1.6459358992554658,"coordinate_pair(lat_x=1.361132977942751, lon_x=103.96859150403844, lat_y=1.356191483, lon_y=103.9546345)",2.678,16.9,AVILA TERRACE
19,3469,1.404922064544006,103.82163884921684,19,A,SPRINGLEAF MRT STATION,1.397581061,103.8178569,155,0.9181827706606859,"coordinate_pair(lat_x=1.404922064544006, lon_x=103.82163884921684, lat_y=1.397581061, lon_y=103.8178569)",1.58,10.316666666666666,16 SPRINGSIDE PLACE
20,3589,1.348187046080488,103.86227349569396,20,A,LORONG CHUAN MRT STATION,1.351639278,103.8639457,135,0.4265107580500766,"coordinate_pair(lat_x=1.348187046080488, lon_x=103.86227349569396, lat_y=1.351639278, lon_y=103.8639457)",1.548,9.966666666666667,BRADDELL HEIGHTS ESTATE
21,3724,1.3088401629131723,103.90120109442844,21,A,EUNOS MRT STATION,1.319783549,103.9032258,46,1.2374900068876047,"coordinate_pair(lat_x=1.3088401629131723, lon_x=103.90120109442844, lat_y=1.319783549, lon_y=103.9032258)",2.888,18.6,162 CARPMAEL ROAD
22,3905,1.3863835414103596,103.87724330692264,22,A,FERNVALE LRT STATION,1.391885892,103.8763086,112,0.6205934754444369,"coordinate_pair(lat_x=1.3863835414103596, lon_x=103.87724330692264, lat_y=1.391885892, lon_y=103.8763086)",2.636,17.0,GERALD MUGLISTON ESTATE
23,4033,1.3215059414671693,103.9522879035098,23,A,BEDOK MRT STATION,1.320401487,103.9571838,36,0.5579380227322791,"coordinate_pair(lat_x=1.3215059414671693, lon_x=103.9522879035098, lat_y=1.320401487, lon_y=103.9571838)",0.71,4.433333333333334,18 JALAN HAJI SALAM
24,4293,1.4278126808608442,103.777908118781,24,A,MARSILING MRT STATION,1.432521149,103.7740746,15,0.6750583827604103,"coordinate_pair(lat_x=1.4278126808608442, lon_x=103.777908118781, lat_y=1.432521149, lon_y=103.7740746)",1.079,6.766666666666667,WOODGROVE ESTATE
25,4479,1.325229223514316,103.83888789733068,25,A,NOVENA MRT STATION,1.320440791,103.8438256,34,0.7647188027869857,"coordinate_pair(lat_x=1.325229223514316, lon_x=103.83888789733068, lat_y=1.320440791, lon_y=103.8438256)",1.449,9.4,CHANCERY HILL VILLAS
26,4611,1.2493835387443353,103.84120321402823,26,A,HARBOURFRONT MRT STATION,1.265389384,103.8215302,129,2.8196810195128856,"coordinate_pair(lat_x=1.2493835387443353, lon_x=103.84120321402823, lat_y=1.265389384, lon_y=103.8215302)",4.302,26.45,THE RESIDENCES AT W SINGAPORE SENTOSA COVE
27,4835,1.2755044434390348,103.79403717138221,27,A,PASIR PANJANG MRT STATION,1.276213522,103.7913503,55,0.3089236627980719,"coordinate_pair(lat_x=1.2755044434390348, lon_x=103.79403717138221, lat_y=1.276213522, lon_y=103.7913503)",0.309,1.8666666666666667,CURRENCY HOUSE
28,5067,1.3514401701338667,103.83329014675668,28,A,UPPER THOMSON MRT STATION,1.354416434,103.8328985,173,0.333796877498332,"coordinate_pair(lat_x=1.3514401701338667, lon_x=103.83329014675668, lat_y=1.354416434, lon_y=103.8328985)",0.619,4.266666666666667,THOMSON RIDGE
29,5121,1.3175319184650591,103.78161384187392,29,A,DOVER MRT STATION,1.311405293,103.7786378,6,0.7573321810720637,"coordinate_pair(lat_x=1.3175319184650591, lon_x=103.78161384187392, lat_y=1.311405293, lon_y=103.7786378)",2.927,18.35,HOLLAND GARDENS
30,5339,1.361041681444904,103.86663299827732,30,A,LORONG CHUAN MRT STATION,1.351639278,103.8639457,135,1.0873403663280687,"coordinate_pair(lat_x=1.361041681444904, lon_x=103.86663299827732, lat_y=1.351639278, lon_y=103.8639457)",1.662,10.316666666666666,26 CHUAN LINK
31,5512,1.3893109504510268,103.8350918938218,31,A,LENTOR MRT STATION,1.38550658,103.8357438,153,0.42918889603569343,"coordinate_pair(lat_x=1.3893109504510268, lon_x=103.8350918938218, lat_y=1.38550658, lon_y=103.8357438)",0.795,4.95,LENTOR VIEW
32,5717,1.3307066144473627,103.87067900261412,32,A,POTONG PASIR MRT STATION,1.331879714,103.8690579,92,0.22246538892625956,"coordinate_pair(lat_x=1.3307066144473627, lon_x=103.87067900261412, lat_y=1.331879714, lon_y=103.8690579)",1.066,6.866666666666666,SENNETT ESTATE
33,5886,1.3805756125412871,103.9446683312864,33,A,PASIR RIS MRT STATION,1.37300805,103.9492651,11,0.9844744841238227,"coordinate_pair(lat_x=1.3805756125412871, lon_x=103.9446683312864, lat_y=1.37300805, lon_y=103.9492651)",2.275,14.65,PASIR RIS BEACH PARK
34,5988,1.3219822689001852,103.75616863725058,34,A,CLEMENTI MRT STATION,1.315116253,103.7651915,40,1.260536205266509,"coordinate_pair(lat_x=1.3219822689001852, lon_x=103.75616863725058, lat_y=1.315116253, lon_y=103.7651915)",1.652,10.3,FABER HILLS
35,6238,1.3717191433823752,103.77305757910308,35,A,PENDING LRT STATION,1.376135743,103.7712612,130,0.5301500171044825,"coordinate_pair(lat_x=1.3717191433823752, lon_x=103.77305757910308, lat_y=1.376135743, lon_y=103.7712612)",0.704,4.433333333333334,MERA GARDENS
36,6446,1.321812680459118,103.8220597530167,36,A,STEVENS MRT STATION,1.320065558,103.8260244,24,0.48164874615091396,"coordinate_pair(lat_x=1.321812680459118, lon_x=103.8220597530167, lat_y=1.320065558, lon_y=103.8260244)",0.479,7.183333333333334,BUKIT TIMAH ROAD
37,6555,1.3657470860200087,103.88368759648664,37,A,KOVAN MRT STATION,1.360179171,103.8850649,134,0.6377740998673191,"coordinate_pair(lat_x=1.3657470860200087, lon_x=103.88368759648664, lat_y=1.360179171, lon_y=103.8850649)",0.825,5.55,32 SIMON PLACE
38,6703,1.3152370537136828,103.85459035427515,38,A,FARRER PARK MRT STATION,1.3131403,103.8547547,35,0.23386308680953807,"coordinate_pair(lat_x=1.3152370537136828, lon_x=103.85459035427515, lat_y=1.3131403, lon_y=103.8547547)",0.333,3.55,45B JOO AVENUE
39,6826,1.3153924704740427,103.88324168111036,39,A,ALJUNIED MRT STATION,1.316432612,103.882906,9,0.12152932874436105,"coordinate_pair(lat_x=1.3153924704740427, lon_x=103.88324168111036, lat_y=1.316432612, lon_y=103.882906)",0.104,0.6333333333333333,58A LORONG 25A GEYLANG
40,7121,1.4163225651376987,103.90536342286208,40,A,PUNGGOL POINT LRT STATION,1.41684852,103.9066508,14,0.15459516347509838,"coordinate_pair(lat_x=1.4163225651376987, lon_x=103.90536342286208, lat_y=1.41684852, lon_y=103.9066508)",0.546,3.6,PONGGOL PARK
41,7203,1.4593622011177272,103.83815539715496,41,A,CANBERRA MRT STATION,1.443076641,103.8297026,157,2.040126685288651,"coordinate_pair(lat_x=1.4593622011177272, lon_x=103.83815539715496, lat_y=1.443076641, lon_y=103.8297026)",2.699,17.05,28 WAK HASSAN DRIVE
42,7389,1.3034846271148015,103.80574285944289,42,A,COMMONWEALTH MRT STATION,1.302501999,103.7982285,117,0.8424581317654625,"coordinate_pair(lat_x=1.3034846271148015, lon_x=103.80574285944289, lat_y=1.302501999, lon_y=103.7982285)",3.256,21.75,PEIRCE VILLAS
43,7603,1.4172256547692652,103.84649733122485,43,A,KHATIB MRT STATION,1.41738337,103.8329799,17,1.5027122675291213,"coordinate_pair(lat_x=1.4172256547692652, lon_x=103.84649733122485, lat_y=1.41738337, lon_y=103.8329799)",2.399,15.15,THE SHAUGHNESSY
44,7853,1.3329563959582975,103.94471388020825,44,A,TANAH MERAH MRT STATION,1.327310982,103.9464517,171,0.6567949241376413,"coordinate_pair(lat_x=1.3329563959582975, lon_x=103.94471388020825, lat_y=1.327310982, lon_y=103.9464517)",1.157,7.65,PEAKVILLE PARK
45,8048,1.3825254356157948,103.86111392531174,45,A,YIO CHU KANG MRT STATION,1.381498825,103.8451707,79,1.7759626223108964,"coordinate_pair(lat_x=1.3825254356157948, lon_x=103.86111392531174, lat_y=1.381498825, lon_y=103.8451707)",6.757,42.583333333333336,MIMOSA VILLAS
46,8222,1.3913475471885492,103.75124880861638,46,A,YEW TEE MRT STATION,1.397297711,103.7473577,77,0.7904716712480738,"coordinate_pair(lat_x=1.3913475471885492, lon_x=103.75124880861638, lat_y=1.397297711, lon_y=103.7473577)",1.64,10.266666666666667,VILLA VERDE
47,8248,1.35448982679601,103.75915285931357,47,A,BUKIT GOMBAK MRT STATION,1.358611591,103.7517909,45,0.9379805109360405,"coordinate_pair(lat_x=1.35448982679601, lon_x=103.75915285931357, lat_y=1.358611591, lon_y=103.7517909)",2.065,12.683333333333334,HILLVIEW VILLAS
48,8476,1.3157155402972711,103.91211630469938,48,A,KEMBANGAN MRT STATION,1.321038134,103.9129479,13,0.5990217186465382,"coordinate_pair(lat_x=1.3157155402972711, lon_x=103.91211630469938, lat_y=1.321038134, lon_y=103.9129479)",1.729,11.033333333333333,367 JOO CHIAT PLACE
49,8715,1.3248456208071735,103.79686341878532,49,A,SIXTH AVENUE MRT STATION,1.330857645,103.7969068,26,0.6685239830777482,"coordinate_pair(lat_x=1.3248456208071735, lon_x=103.79686341878532, lat_y=1.330857645, lon_y=103.7969068)",1.034,6.466666666666667,14 NAMLY GARDEN
50,8829,1.340324956700946,103.78148898638386,50,A,KING ALBERT PARK MRT STATION,1.335661613,103.7833991,63,0.5603310752128042,"coordinate_pair(lat_x=1.340324956700946, lon_x=103.78148898638386, lat_y=1.335661613, lon_y=103.7833991)",1.666,11.466666666666667,MAYFAIR PARK
51,8984,1.2945353156483324,103.82860890004044,51,A,GREAT WORLD MRT STATION,1.293316457,103.8339066,165,0.6043209503152516,"coordinate_pair(lat_x=1.2945353156483324, lon_x=103.82860890004044, lat_y=1.293316457, lon_y=103.8339066)",0.975,5.9,RV RESIDENCES
52,9181,1.4160856248870395,103.75843720953624,52,A,KRANJI MRT STATION,1.425086981,103.7621375,51,1.0821280140465752,"coordinate_pair(lat_x=1.4160856248870395, lon_x=103.75843720953624, lat_y=1.425086981, lon_y=103.7621375)",2.72,16.833333333333332,WOODLANDS PARK
53,9355,1.3550306623745159,103.8812414837298,53,A,KOVAN MRT STATION,1.360179171,103.8850649,134,0.7130139786669406,"coordinate_pair(lat_x=1.3550306623745159, lon_x=103.8812414837298, lat_y=1.360179171, lon_y=103.8850649)",0.854,5.383333333333334,CHARLTON 27
54,9544,1.354038802416034,103.84191934723128,54,A,MARYMOUNT MRT STATION,1.348707263,103.8394231,136,0.6545698535555846,"coordinate_pair(lat_x=1.354038802416034, lon_x=103.84191934723128, lat_y=1.348707263, lon_y=103.8394231)",0.892,5.7,CORAL PARK
55,9722,1.3780482188941383,103.83385515397173,55,A,MAYFLOWER MRT STATION,1.371463188,103.8365678,174,0.7918831215412261,"coordinate_pair(lat_x=1.3780482188941383, lon_x=103.83385515397173, lat_y=1.371463188, lon_y=103.8365678)",1.425,8.766666666666667,THOMSON HILLS ESTATE
56,9816,1.3229489913602497,103.81073588026833,56,A,BOTANIC GARDENS MRT STATION,1.322113736,103.8149845,58,0.48134439892028175,"coordinate_pair(lat_x=1.3229489913602497, lon_x=103.81073588026833, lat_y=1.322113736, lon_y=103.8149845)",2.443,24.75,KING'S ARCADE
57,10070,1.3301724662629815,103.88310499792516,57,A,MATTAR MRT STATION,1.326876715,103.8832475,145,0.36681304094314715,"coordinate_pair(lat_x=1.3301724662629815, lon_x=103.88310499792516, lat_y=1.326876715, lon_y=103.8832475)",0.873,5.683333333333334,2 JALAN SIKUDANGAN
58,10205,1.38541891978261,103.87150311059112,58,A,FERNVALE LRT STATION,1.391885892,103.8763086,112,0.8957984742474852,"coordinate_pair(lat_x=1.38541891978261, lon_x=103.87150311059112, lat_y=1.391885892, lon_y=103.8763086)",3.048,20.05,SELETAR HILLS ESTATE
59,10478,1.3180885091881087,103.93840571578896,59,A,TANAH MERAH MRT STATION,1.327310982,103.9464517,171,1.3607522995230854,"coordinate_pair(lat_x=1.3180885091881087, lon_x=103.93840571578896, lat_y=1.327310982, lon_y=103.9464517)",3.943,24.466666666666665,2 SENNETT DRIVE
60,10653,1.324150817688116,103.94782116284036,60,A,TANAH MERAH MRT STATION,1.327310982,103.9464517,171,0.3829541497630706,"coordinate_pair(lat_x=1.324150817688116, lon_x=103.94782116284036, lat_y=1.327310982, lon_y=103.9464517)",1.562,9.633333333333333,BEDOKVILLE
61,10715,1.3914827023402607,103.90111313214815,61,A,COMPASSVALE LRT STATION,1.394493045,103.9004925,16,0.34177058244539243,"coordinate_pair(lat_x=1.3914827023402607, lon_x=103.90111313214815, lat_y=1.394493045, lon_y=103.9004925)",0.394,2.6,BEAUTY GARDEN
62,10934,1.3400216718744813,103.71790371536224,62,A,LAKESIDE MRT STATION,1.344259115,103.7209491,93,0.5801904043865119,"coordinate_pair(lat_x=1.3400216718744813, lon_x=103.71790371536224, lat_y=1.344259115, lon_y=103.7209491)",1.606,10.75,LAKESIDE GROVE
63,11141,1.3380838813786746,103.69123703060173,63,A,PIONEER MRT STATION,1.337587011,103.6973216,99,0.6786415401678385,"coordinate_pair(lat_x=1.3380838813786746, lon_x=103.69123703060173, lat_y=1.337587011, lon_y=103.6973216)",0.862,5.95,YUNNAN GARDENS
64,11289,1.3564277514804568,103.8649618096486,64,A,LORONG CHUAN MRT STATION,1.351639278,103.8639457,135,0.5443032044905869,"coordinate_pair(lat_x=1.3564277514804568, lon_x=103.8649618096486, lat_y=1.351639278, lon_y=103.8639457)",1.091,7.116666666666666,GOLDEN HILL ESTATE
65,11451,1.314019735733506,103.91715946227256,65,A,KEMBANGAN MRT STATION,1.321038134,103.9129479,13,0.9100732011212279,"coordinate_pair(lat_x=1.314019735733506, lon_x=103.91715946227256, lat_y=1.321038134, lon_y=103.9129479)",2.093,14.1,FRANKEL ESTATE
66,11569,1.3628534456442782,103.8295954046441,66,A,BRIGHT HILL MRT STATION,1.363846766,103.8338992,154,0.49100907529281423,"coordinate_pair(lat_x=1.3628534456442782, lon_x=103.8295954046441, lat_y=1.363846766, lon_y=103.8338992)",1.513,9.35,FABER GARDEN
67,11732,1.3432260634851343,103.77232047776698,67,A,BEAUTY WORLD MRT STATION,1.34090149,103.7757467,73,0.46030134998418815,"coordinate_pair(lat_x=1.3432260634851343, lon_x=103.77232047776698, lat_y=1.34090149, lon_y=103.7757467)",0.731,4.866666666666666,HOOVER PARK
68,11963,1.2883947278060457,103.77749370570376,68,A,HAW PAR VILLA MRT STATION,1.281956887,103.781989,61,0.8730274749035231,"coordinate_pair(lat_x=1.2883947278060457, lon_x=103.77749370570376, lat_y=1.281956887, lon_y=103.781989)",0.91,5.616666666666666,STARPOINT
69,12113,1.3136102933369764,103.75740521354696,69,A,CLEMENTI MRT STATION,1.315116253,103.7651915,40,0.8816171136400102,"coordinate_pair(lat_x=1.3136102933369764, lon_x=103.75740521354696, lat_y=1.315116253, lon_y=103.7651915)",6.947,43.78333333333333,WEST COAST GARDENS
70,12299,1.31300801046222,103.89926875948456,70,A,EUNOS MRT STATION,1.319783549,103.9032258,46,0.8724220162527753,"coordinate_pair(lat_x=1.31300801046222, lon_x=103.89926875948456, lat_y=1.319783549, lon_y=103.9032258)",2.434,15.816666666666666,155 ONAN ROAD
71,12599,1.427091447215155,103.82518294734936,71,A,YISHUN MRT STATION,1.429443085,103.835005,78,1.122699787090632,"coordinate_pair(lat_x=1.427091447215155, lon_x=103.82518294734936, lat_y=1.429443085, lon_y=103.835005)",2.131,13.416666666666666,GOODLINK PARK
72,12643,1.3042145815227677,103.8881553373798,72,A,DAKOTA MRT STATION,1.308547984,103.8890647,3,0.4923423007179629,"coordinate_pair(lat_x=1.3042145815227677, lon_x=103.8881553373798, lat_y=1.308547984, lon_y=103.8890647)",1.496,9.566666666666666,68A GOODMAN ROAD
73,12933,1.3981388078498236,103.87235260071516,73,A,THANGGAM LRT STATION,1.397318156,103.8756352,88,0.3761367259976323,"coordinate_pair(lat_x=1.3981388078498236, lon_x=103.87235260071516, lat_y=1.397318156, lon_y=103.8756352)",0.981,6.0,JALAN KAYU ESTATE
74,13061,1.3782100381709927,103.96014442889232,74,A,PASIR RIS MRT STATION,1.37300805,103.9492651,11,1.3405896894688232,"coordinate_pair(lat_x=1.3782100381709927, lon_x=103.96014442889232, lat_y=1.37300805, lon_y=103.9492651)",1.686,10.466666666666667,SEA ESTA
75,13190,1.3184035089402768,103.78789979701448,75,A,HOLLAND VILLAGE MRT STATION,1.312240296,103.7963991,56,1.1672039945843302,"coordinate_pair(lat_x=1.3184035089402768, lon_x=103.78789979701448, lat_y=1.312240296, lon_y=103.7963991)",1.385,8.666666666666666,MING TECK PARK
76,13365,1.3128996993971107,103.79860785442985,76,A,HOLLAND VILLAGE MRT STATION,1.312240296,103.7963991,56,0.256251816958901,"coordinate_pair(lat_x=1.3128996993971107, lon_x=103.79860785442985, lat_y=1.312240296, lon_y=103.7963991)",0.341,2.3666666666666667,THE BELMONT
77,13579,1.3223956168264777,103.84185761701303,77,A,NOVENA MRT STATION,1.320440791,103.8438256,34,0.3083979085008666,"coordinate_pair(lat_x=1.3223956168264777, lon_x=103.84185761701303, lat_y=1.320440791, lon_y=103.8438256)",0.679,4.35,NOVENA COURT
78,13760,1.2789083608299878,103.79054074763316,78,A,PASIR PANJANG MRT STATION,1.276213522,103.7913503,55,0.3128750509329607,"coordinate_pair(lat_x=1.2789083608299878, lon_x=103.79054074763316, lat_y=1.276213522, lon_y=103.7913503)",0.624,6.066666666666666,SPRINGWOOD
79,13901,1.3113907165151284,103.9141000836402,79,A,KEMBANGAN MRT STATION,1.321038134,103.9129479,13,1.080363239787533,"coordinate_pair(lat_x=1.3113907165151284, lon_x=103.9141000836402, lat_y=1.321038134, lon_y=103.9129479)",2.591,15.966666666666667,PALACIO
80,14054,1.3209450050873464,103.80665666284908,80,A,FARRER ROAD MRT STATION,1.317439152,103.8073792,148,0.39802175611178264,"coordinate_pair(lat_x=1.3209450050873464, lon_x=103.80665666284908, lat_y=1.317439152, lon_y=103.8073792)",0.723,4.666666666666667,NANYANG PRIMARY SCHOOL
81,14284,1.2760727101874159,103.83886365474352,81,A,OUTRAM PARK MRT STATION,1.279739707,103.8395135,103,0.41410152840361003,"coordinate_pair(lat_x=1.2760727101874159, lon_x=103.83886365474352, lat_y=1.279739707, lon_y=103.8395135)",0.922,6.133333333333334,MULTI STOREY CAR PARK
82,14491,1.2972337943804126,103.84097632354472,82,A,SOMERSET MRT STATION,1.300264167,103.8390858,29,0.3971293980687584,"coordinate_pair(lat_x=1.2972337943804126, lon_x=103.84097632354472, lat_y=1.300264167, lon_y=103.8390858)",0.58,3.716666666666667,OXLEY RESIDENCE
83,14601,1.326966107804735,103.91538048996964,83,A,KEMBANGAN MRT STATION,1.321038134,103.9129479,13,0.712474132851259,"coordinate_pair(lat_x=1.326966107804735, lon_x=103.91538048996964, lat_y=1.321038134, lon_y=103.9129479)",1.422,8.95,71L JALAN SENANG
84,14789,1.3650003606033028,103.86401873424361,84,A,LORONG CHUAN MRT STATION,1.351639278,103.8639457,135,1.485706782903182,"coordinate_pair(lat_x=1.3650003606033028, lon_x=103.86401873424361, lat_y=1.351639278, lon_y=103.8639457)",2.22,14.516666666666667,SERANGOON GARDEN ESTATE
85,15012,1.3456405390059347,103.87058948944625,85,A,SERANGOON MRT STATION,1.350633615,103.8727717,31,0.6058870117704077,"coordinate_pair(lat_x=1.3456405390059347, lon_x=103.87058948944625, lat_y=1.350633615, lon_y=103.8727717)",1.062,6.65,20 SOMMERVILLE WALK
86,15116,1.3746077247779769,103.90067345887967,86,A,HOUGANG MRT STATION,1.371292266,103.8923805,7,0.9928527178590405,"coordinate_pair(lat_x=1.3746077247779769, lon_x=103.90067345887967, lat_y=1.371292266, lon_y=103.8923805)",1.276,7.733333333333333,THE FLORIDA
87,15391,1.347004231913392,103.96243581569864,87,A,UPPER CHANGI MRT STATION,1.341739774,103.9614728,82,0.595089295896745,"coordinate_pair(lat_x=1.347004231913392, lon_x=103.96243581569864, lat_y=1.341739774, lon_y=103.9614728)",0.821,5.433333333333334,EAST VIEW GARDEN
88,15544,1.3994810300551794,103.82395533183993,88,A,SPRINGLEAF MRT STATION,1.397581061,103.8178569,155,0.7100699367125207,"coordinate_pair(lat_x=1.3994810300551794, lon_x=103.82395533183993, lat_y=1.397581061, lon_y=103.8178569)",0.984,6.183333333333334,SPRINGLEAF GARDEN
89,15727,1.335122390201762,103.80600074647508,89,A,TAN KAH KEE MRT STATION,1.326392241,103.8065482,172,0.9726540566767102,"coordinate_pair(lat_x=1.335122390201762, lon_x=103.80600074647508, lat_y=1.326392241, lon_y=103.8065482)",1.996,13.133333333333333,THE GREENWOOD
90,15854,1.3178289818156237,103.83903034772528,90,A,NOVENA MRT STATION,1.320440791,103.8438256,34,0.6070449210737596,"coordinate_pair(lat_x=1.3178289818156237, lon_x=103.83903034772528, lat_y=1.320440791, lon_y=103.8438256)",1.531,10.033333333333333,THE GILSTEAD
91,16042,1.3328961079361514,103.87698518760745,91,A,POTONG PASIR MRT STATION,1.331879714,103.8690579,92,0.888453505728239,"coordinate_pair(lat_x=1.3328961079361514, lon_x=103.87698518760745, lat_y=1.331879714, lon_y=103.8690579)",1.23,8.15,SENNETT ESTATE
92,16270,1.4320230193468555,103.79948334428713,92,A,WOODLANDS SOUTH MRT STATION,1.427488114,103.7927299,158,0.9043503373893902,"coordinate_pair(lat_x=1.4320230193468555, lon_x=103.79948334428713, lat_y=1.427488114, lon_y=103.7927299)",1.027,6.3,FORESTVILLE
93,16421,1.3202477589190187,103.83423246726544,93,A,STEVENS MRT STATION,1.320065558,103.8260244,24,0.9126780706547396,"coordinate_pair(lat_x=1.3202477589190187, lon_x=103.83423246726544, lat_y=1.320065558, lon_y=103.8260244)",1.52,10.666666666666666,14 BARKER ROAD
94,16511,1.23966835320331,103.83383937875176,94,A,HARBOURFRONT MRT STATION,1.265389384,103.8215302,129,3.1705472306894937,"coordinate_pair(lat_x=1.23966835320331, lon_x=103.83383937875176, lat_y=1.265389384, lon_y=103.8215302)",5.155,31.966666666666665,100 COVE DRIVE
95,16663,1.3264319833833662,103.76722221405169,95,A,CLEMENTI MRT STATION,1.315116253,103.7651915,40,1.2783420788563902,"coordinate_pair(lat_x=1.3264319833833662, lon_x=103.76722221405169, lat_y=1.315116253, lon_y=103.7651915)",2.499,15.433333333333334,8 SUNSET SQUARE
96,16937,1.3591809360588856,103.87559775627057,96,A,SERANGOON MRT STATION,1.350633615,103.8727717,31,1.0009941583573507,"coordinate_pair(lat_x=1.3591809360588856, lon_x=103.87559775627057, lat_y=1.350633615, lon_y=103.8727717)",1.126,7.183333333333334,45 HILLSIDE DRIVE
97,17087,1.3124794150849537,103.8930364153266,97,A,PAYA LEBAR MRT STATION,1.31719912,103.8923649,1,0.5300897843907311,"coordinate_pair(lat_x=1.3124794150849537, lon_x=103.8930364153266, lat_y=1.31719912, lon_y=103.8923649)",0.812,6.616666666666666,36 PEBBLE LANE
98,17226,1.310120410115731,103.92422069578853,98,A,KEMBANGAN MRT STATION,1.321038134,103.9129479,13,1.7447530516714342,"coordinate_pair(lat_x=1.310120410115731, lon_x=103.92422069578853, lat_y=1.321038134, lon_y=103.9129479)",2.502,15.45,FERNWOOD TERRACE
99,17440,1.3767472793248035,103.75875881652516,99,A,PHOENIX LRT STATION,1.378615451,103.7579956,8,0.22438872137477123,"coordinate_pair(lat_x=1.3767472793248035, lon_x=103.75875881652516, lat_y=1.378615451, lon_y=103.7579956)",0.474,3.0,PHOENIX HEIGHTS
100,17564,1.3556730424388,103.76630818123547,100,A,HILLVIEW MRT STATION,1.362344868,103.7674183,72,0.7520668414931434,"coordinate_pair(lat_x=1.3556730424388, lon_x=103.76630818123547, lat_y=1.362344868, lon_y=103.7674183)",2.488,15.7,SYMPHONY HEIGHTS
101,17783,1.3014897316212504,103.82723869038387,101,A,ORCHARD MRT STATION,1.302422248,103.8238685,152,0.38873571719701205,"coordinate_pair(lat_x=1.3014897316212504, lon_x=103.82723869038387, lat_y=1.302422248, lon_y=103.8238685)",0.623,4.166666666666667,KIM LIN PARK
102,17950,1.3009703498772212,103.81612425778803,102,A,NAPIER MRT STATION,1.306782234,103.8189568,162,0.718883052820172,"coordinate_pair(lat_x=1.3009703498772212, lon_x=103.81612425778803, lat_y=1.306782234, lon_y=103.8189568)",1.473,9.133333333333333,TANGLIN HILL VILLAS
103,18041,1.3377275981908567,103.8199729247406,103,A,BOTANIC GARDENS MRT STATION,1.322113736,103.8149845,58,1.8225919319774264,"coordinate_pair(lat_x=1.3377275981908567, lon_x=103.8199729247406, lat_y=1.322113736, lon_y=103.8149845)",9.712,72.58333333333333,LORNIE 18
104,18229,1.3712407605365216,103.76918070552865,104,A,CASHEW MRT STATION,1.369815449,103.7644392,75,0.5503927203309766,"coordinate_pair(lat_x=1.3712407605365216, lon_x=103.76918070552865, lat_y=1.369815449, lon_y=103.7644392)",0.913,5.966666666666667,CASHEW VILLAS
105,18451,1.3199796417252234,103.92124585585707,105,A,KEMBANGAN MRT STATION,1.321038134,103.9129479,13,0.9299241033885327,"coordinate_pair(lat_x=1.3199796417252234, lon_x=103.92124585585707, lat_y=1.321038134, lon_y=103.9129479)",1.09,8.15,OPERA ESTATE
106,18630,1.355742150842837,103.88641141441067,106,A,KOVAN MRT STATION,1.360179171,103.8850649,134,0.5155804391820327,"coordinate_pair(lat_x=1.355742150842837, lon_x=103.88641141441067, lat_y=1.360179171, lon_y=103.8850649)",1.479,9.116666666666667,CHARLTON PARK
107,18822,1.3721445941154755,103.84034143999548,107,A,MAYFLOWER MRT STATION,1.371463188,103.8365678,174,0.42627719742208725,"coordinate_pair(lat_x=1.3721445941154755, lon_x=103.84034143999548, lat_y=1.371463188, lon_y=103.8365678)",0.634,4.016666666666667,MAYFLOWER GARDENS
108,18938,1.307903364273157,103.76374266634636,108,A,CLEMENTI MRT STATION,1.315116253,103.7651915,40,0.8180484857113699,"coordinate_pair(lat_x=1.307903364273157, lon_x=103.76374266634636, lat_y=1.315116253, lon_y=103.7651915)",7.948,49.5,PASIR PANJANG GARDENS
109,19226,1.3511871153395747,103.92791426560464,109,A,TAMPINES WEST MRT STATION,1.345633658,103.9384925,19,1.328199853768098,"coordinate_pair(lat_x=1.3511871153395747, lon_x=103.92791426560464, lat_y=1.345633658, lon_y=103.9384925)",1.605,9.8,Q BAY RESIDENCES
110,19329,1.343082810137192,103.7875656370336,110,A,KING ALBERT PARK MRT STATION,1.335661613,103.7833991,63,0.9462989626576587,"coordinate_pair(lat_x=1.343082810137192, lon_x=103.7875656370336, lat_y=1.335661613, lon_y=103.7833991)",1.544,10.3,2 BINJAI RISE
111,19452,1.3378191303565314,103.83349260151952,111,A,CALDECOTT MRT STATION,1.337245613,103.8401618,137,0.7441167162918447,"coordinate_pair(lat_x=1.3378191303565314, lon_x=103.83349260151952, lat_y=1.337245613, lon_y=103.8401618)",0.976,6.016666666666667,ANDREW ROAD
112,19655,1.3869090620626012,103.8642571130989,112,A,FERNVALE LRT STATION,1.391885892,103.8763086,112,1.4494709017462166,"coordinate_pair(lat_x=1.3869090620626012, lon_x=103.8642571130989, lat_y=1.391885892, lon_y=103.8763086)",2.717,17.116666666666667,HOCK SWEE HILL
113,19928,1.3258087244209136,103.95274325828429,113,A,TANAH MERAH MRT STATION,1.327310982,103.9464517,171,0.7190733400870417,"coordinate_pair(lat_x=1.3258087244209136, lon_x=103.95274325828429, lat_y=1.327310982, lon_y=103.9464517)",1.314,7.966666666666667,16 JALAN NIPAH
114,19963,1.35228442471909,103.846208668151,114,A,BISHAN MRT STATION,1.351315801,103.8491403,111,0.3432289306300726,"coordinate_pair(lat_x=1.35228442471909, lon_x=103.846208668151, lat_y=1.351315801, lon_y=103.8491403)",0.792,5.2,THOMSON RISE ESTATE
115,20146,1.2979025506259088,103.856830991058,115,A,BUGIS MRT STATION,1.300465085,103.8557067,100,0.3111464337734098,"coordinate_pair(lat_x=1.2979025506259088, lon_x=103.856830991058, lat_y=1.300465085, lon_y=103.8557067)",0.565,3.816666666666667,2 LIANG SEAH STREET
116,20314,1.3255934996231975,103.86470747486914,116,A,BOON KENG MRT STATION,1.319939577,103.8620527,69,0.6945092594257395,"coordinate_pair(lat_x=1.3255934996231975, lon_x=103.86470747486914, lat_y=1.319939577, lon_y=103.8620527)",1.494,11.65,6B SAINT MICHAEL'S ROAD
117,20541,1.367886114600395,103.89081187885373,117,A,HOUGANG MRT STATION,1.371292266,103.8923805,7,0.416959238994444,"coordinate_pair(lat_x=1.367886114600395, lon_x=103.89081187885373, lat_y=1.371292266, lon_y=103.8923805)",0.585,3.566666666666667,PEOPLE'S GARDEN
118,20796,1.325681850954814,103.82390153991776,118,A,STEVENS MRT STATION,1.320065558,103.8260244,24,0.6676038160466645,"coordinate_pair(lat_x=1.325681850954814, lon_x=103.82390153991776, lat_y=1.320065558, lon_y=103.8260244)",0.964,7.116666666666666,DUNEARN ESTATE
119,20832,1.3393333601066526,103.76111755837688,119,A,BEAUTY WORLD MRT STATION,1.34090149,103.7757467,73,1.6355626893533366,"coordinate_pair(lat_x=1.3393333601066526, lon_x=103.76111755837688, lat_y=1.34090149, lon_y=103.7757467)",2.293,14.233333333333333,BURGUNDY HILL
120,21160,1.3262306166277886,103.8483310523577,120,A,TOA PAYOH MRT STATION,1.332596728,103.8475773,86,0.7128211530774388,"coordinate_pair(lat_x=1.3262306166277886, lon_x=103.8483310523577, lat_y=1.332596728, lon_y=103.8475773)",4.016,25.266666666666666,COLIWOO BALESTIER 453
121,21297,1.2890326038131628,103.80530397022903,121,A,QUEENSTOWN MRT STATION,1.294550852,103.8060772,120,0.6195926936262031,"coordinate_pair(lat_x=1.2890326038131628, lon_x=103.80530397022903, lat_y=1.294550852, lon_y=103.8060772)",0.869,5.416666666666667,ANCHORPOINT SHOPPING CENTRE
122,21351,1.3119069122332239,103.88248663696145,122,A,ALJUNIED MRT STATION,1.316432612,103.882906,9,0.5053895806342504,"coordinate_pair(lat_x=1.3119069122332239, lon_x=103.88248663696145, lat_y=1.316432612, lon_y=103.882906)",0.658,5.566666666666666,25 LORONG 22 GEYLANG
123,21574,1.3103607987776935,103.90531249893588,123,A,EUNOS MRT STATION,1.319783549,103.9032258,46,1.0731332484307359,"coordinate_pair(lat_x=1.3103607987776935, lon_x=103.90531249893588, lat_y=1.319783549, lon_y=103.9032258)",2.165,13.783333333333333,61A DUKU ROAD
124,21780,1.3616266929917176,103.88128381283909,124,A,KOVAN MRT STATION,1.360179171,103.8850649,134,0.450083712194315,"coordinate_pair(lat_x=1.3616266929917176, lon_x=103.88128381283909, lat_y=1.360179171, lon_y=103.8850649)",0.661,4.333333333333333,10 RICHARDS PLACE
125,22042,1.3546615995155555,103.82963264290476,125,A,UPPER THOMSON MRT STATION,1.354416434,103.8328985,173,0.36406734769940224,"coordinate_pair(lat_x=1.3546615995155555, lon_x=103.82963264290476, lat_y=1.354416434, lon_y=103.8328985)",0.719,5.833333333333333,ADELPHI PARK ESTATE
126,22161,1.3707395686826895,103.94469007619485,126,A,PASIR RIS MRT STATION,1.37300805,103.9492651,11,0.5676917879574768,"coordinate_pair(lat_x=1.3707395686826895, lon_x=103.94469007619485, lat_y=1.37300805, lon_y=103.9492651)",0.987,6.466666666666667,NV RESIDENCES
127,22241,1.3272082605835436,103.81823850116736,127,A,BOTANIC GARDENS MRT STATION,1.322113736,103.8149845,58,0.6721275326853368,"coordinate_pair(lat_x=1.3272082605835436, lon_x=103.81823850116736, lat_y=1.322113736, lon_y=103.8149845)",2.747,30.416666666666668,CAPITOL PARK
128,22430,1.3637175542882891,103.97281056163416,128,A,CHANGI AIRPORT MRT STATION,1.357478974,103.9878836,38,1.8134943968143553,"coordinate_pair(lat_x=1.3637175542882891, lon_x=103.97281056163416, lat_y=1.357478974, lon_y=103.9878836)",5.313,32.9,TOH ESTATE
129,22675,1.3132487248296227,103.82227262218832,129,A,NAPIER MRT STATION,1.306782234,103.8189568,162,0.8080163853365656,"coordinate_pair(lat_x=1.3132487248296227, lon_x=103.82227262218832, lat_y=1.306782234, lon_y=103.8189568)",2.234,24.783333333333335,56 DALVEY ROAD
130,22829,1.3235313331201812,103.7855420860066,130,A,KING ALBERT PARK MRT STATION,1.335661613,103.7833991,63,1.369701283556724,"coordinate_pair(lat_x=1.3235313331201812, lon_x=103.7855420860066, lat_y=1.335661613, lon_y=103.7833991)",1.77,10.716666666666667,559 HOLLAND ROAD
131,23022,1.3720834456892659,103.83323837327944,131,A,MAYFLOWER MRT STATION,1.371463188,103.8365678,174,0.3764806183267761,"coordinate_pair(lat_x=1.3720834456892659, lon_x=103.83323837327944, lat_y=1.371463188, lon_y=103.8365678)",0.519,3.4,SAINT NICHOLAS VIEW
132,23155,1.383920949344717,103.874219077982,132,A,FERNVALE LRT STATION,1.391885892,103.8763086,112,0.9156134366933427,"coordinate_pair(lat_x=1.383920949344717, lon_x=103.874219077982, lat_y=1.391885892, lon_y=103.8763086)",2.659,17.416666666666668,SELETAR HILLS ESTATE
133,23308,1.342990087073806,103.73519773007064,133,A,CHINESE GARDEN MRT STATION,1.342244948,103.7327666,47,0.2826709935203733,"coordinate_pair(lat_x=1.342990087073806, lon_x=103.73519773007064, lat_y=1.342244948, lon_y=103.7327666)",0.59,4.4,TAS TELEPHONE EXCHANGE
134,23603,1.3314091386955118,103.94925395518108,134,A,TANAH MERAH MRT STATION,1.327310982,103.9464517,171,0.5519940149056264,"coordinate_pair(lat_x=1.3314091386955118, lon_x=103.94925395518108, lat_y=1.327310982, lon_y=103.9464517)",1.341,8.333333333333334,53 JALAN CHEMPAKA KUNING
135,23679,1.3174194918058788,103.81180332860548,135,A,FARRER ROAD MRT STATION,1.317439152,103.8073792,148,0.4918154755950081,"coordinate_pair(lat_x=1.3174194918058788, lon_x=103.81180332860548, lat_y=1.317439152, lon_y=103.8073792)",2.198,13.933333333333334,100 GALLOP PARK ROAD
136,23952,1.3290570528786019,103.80955119132426,136,A,TAN KAH KEE MRT STATION,1.326392241,103.8065482,172,0.44636609629035895,"coordinate_pair(lat_x=1.3290570528786019, lon_x=103.80955119132426, lat_y=1.326392241, lon_y=103.8065482)",1.996,12.2,WATTEN ESTATE
137,23985,1.3377537656920144,103.93221382582313,137,A,BEDOK RESERVOIR MRT STATION,1.33660783,103.9322346,151,0.12744316043871864,"coordinate_pair(lat_x=1.3377537656920144, lon_x=103.93221382582313, lat_y=1.33660783, lon_y=103.9322346)",0.645,3.966666666666667,BAYWATER
138,24247,1.3756851217280293,103.83141112855289,138,A,MAYFLOWER MRT STATION,1.371463188,103.8365678,174,0.7409346517716437,"coordinate_pair(lat_x=1.3756851217280293, lon_x=103.83141112855289, lat_y=1.371463188, lon_y=103.8365678)",1.036,6.433333333333334,THOMSON HILLS ESTATE
139,24414,1.3607507024136762,103.86254334552278,139,A,LORONG CHUAN MRT STATION,1.351639278,103.8639457,135,1.025067372708278,"coordinate_pair(lat_x=1.3607507024136762, lon_x=103.86254334552278, lat_y=1.351639278, lon_y=103.8639457)",1.637,10.6,SERANGOON GARDEN ESTATE
140,24546,1.3134245789821215,103.78372075880839,140,A,DOVER MRT STATION,1.311405293,103.7786378,6,0.6080281804034364,"coordinate_pair(lat_x=1.3134245789821215, lon_x=103.78372075880839, lat_y=1.311405293, lon_y=103.7786378)",2.558,15.7,HENRY PARK
141,24747,1.328948266863334,103.90765872173343,141,A,KAKI BUKIT MRT STATION,1.33496736,103.9084593,143,0.6751836286844731,"coordinate_pair(lat_x=1.328948266863334, lon_x=103.90765872173343, lat_y=1.33496736, lon_y=103.9084593)",1.16,7.4,11 JALAN RIMAU
142,24926,1.3120073666663035,103.93050887291312,142,A,KEMBANGAN MRT STATION,1.321038134,103.9129479,13,2.195303658825777,"coordinate_pair(lat_x=1.3120073666663035, lon_x=103.93050887291312, lat_y=1.321038134, lon_y=103.9129479)",5.44,34.65,8 ELLIOT ROAD
143,25129,1.318355886827264,103.84732443496368,143,A,NOVENA MRT STATION,1.320440791,103.8438256,34,0.45279935417218753,"coordinate_pair(lat_x=1.318355886827264, lon_x=103.84732443496368, lat_y=1.320440791, lon_y=103.8438256)",0.559,3.683333333333333,35A SHREWSBURY ROAD
144,25340,1.3217927860962635,103.79273756272462,144,A,SIXTH AVENUE MRT STATION,1.330857645,103.7969068,26,1.1094161034764203,"coordinate_pair(lat_x=1.3217927860962635, lon_x=103.79273756272462, lat_y=1.330857645, lon_y=103.7969068)",1.536,9.583333333333334,76 JALAN LIM TAI SEE
145,25519,1.398216535038855,103.8201274621373,145,A,SPRINGLEAF MRT STATION,1.397581061,103.8178569,155,0.26210442635868647,"coordinate_pair(lat_x=1.398216535038855, lon_x=103.8201274621373, lat_y=1.397581061, lon_y=103.8178569)",0.43,2.683333333333333,SPRINGLEAF GARDEN
146,25604,1.3108428238033831,103.80610360614348,146,A,FARRER ROAD MRT STATION,1.317439152,103.8073792,148,0.7470596993036522,"coordinate_pair(lat_x=1.3108428238033831, lon_x=103.80610360614348, lat_y=1.317439152, lon_y=103.8073792)",1.3,10.983333333333333,SOMMERVILLE PARK
147,25813,1.3027162422524157,103.84837247621884,147,A,LITTLE INDIA MRT STATION,1.306800197,103.8496471,64,0.47570782646862997,"coordinate_pair(lat_x=1.3027162422524157, lon_x=103.84837247621884, lat_y=1.306800197, lon_y=103.8496471)",1.037,6.683333333333334,11 UPPER WILKIE ROAD
148,25955,1.3811932980899406,103.86508365702409,148,A,FERNVALE LRT STATION,1.391885892,103.8763086,112,1.7235469557940606,"coordinate_pair(lat_x=1.3811932980899406, lon_x=103.86508365702409, lat_y=1.391885892, lon_y=103.8763086)",4.298,27.366666666666667,BELGRAVIA ACE
149,26151,1.3231286786833016,103.91680466877844,149,A,KEMBANGAN MRT STATION,1.321038134,103.9129479,13,0.48770257065171735,"coordinate_pair(lat_x=1.3231286786833016, lon_x=103.91680466877844, lat_y=1.321038134, lon_y=103.9129479)",0.665,4.45,48 JALAN LAPANG
150,26288,1.3193889026145516,103.75846406344692,150,A,CLEMENTI MRT STATION,1.315116253,103.7651915,40,0.8860081237359608,"coordinate_pair(lat_x=1.3193889026145516, lon_x=103.75846406344692, lat_y=1.315116253, lon_y=103.7651915)",1.257,8.033333333333333,FABER HILLS
151,26502,1.291954455969201,103.77111792460381,151,A,KENT RIDGE MRT STATION,1.293536986,103.7845724,60,1.5060045264410755,"coordinate_pair(lat_x=1.291954455969201, lon_x=103.77111792460381, lat_y=1.293536986, lon_y=103.7845724)",2.154,13.65,EALINE PARK
152,26676,1.3160058022604817,103.92016503481447,152,A,KEMBANGAN MRT STATION,1.321038134,103.9129479,13,0.9781603405994458,"coordinate_pair(lat_x=1.3160058022604817, lon_x=103.92016503481447, lat_y=1.321038134, lon_y=103.9129479)",1.518,9.95,49 CHEVIOT HILL
153,26846,1.3974307557931203,103.91380149062728,153,A,KADALOOR LRT STATION,1.399509106,103.916575,48,0.38530786253590776,"coordinate_pair(lat_x=1.3974307557931203, lon_x=103.91380149062728, lat_y=1.399509106, lon_y=103.916575)",0.739,4.7,RIVER ISLES
154,27103,1.31480762378226,103.93638099275424,154,A,TANAH MERAH MRT STATION,1.327310982,103.9464517,171,1.785013525793815,"coordinate_pair(lat_x=1.31480762378226, lon_x=103.93638099275424, lat_y=1.327310982, lon_y=103.9464517)",3.312,20.55,SPRING PARK ESTATE
155,27293,1.4299262711858671,103.78453363789374,155,A,WOODLANDS MRT STATION,1.436057617,103.7879388,81,0.7798029645016281,"coordinate_pair(lat_x=1.4299262711858671, lon_x=103.78453363789374, lat_y=1.436057617, lon_y=103.7879388)",1.672,11.216666666666667,WOODHAVEN
156,27443,1.379015609398749,103.74629954953485,156,A,SOUTH VIEW LRT STATION,1.380298287,103.7452918,27,0.18136135311593612,"coordinate_pair(lat_x=1.379015609398749, lon_x=103.74629954953485, lat_y=1.380298287, lon_y=103.7452918)",0.304,2.2,248 CHOA CHU KANG AVENUE 2
157,27554,1.3317525141738245,103.78792909118908,157,A,KING ALBERT PARK MRT STATION,1.335661613,103.7833991,63,0.6652278347140863,"coordinate_pair(lat_x=1.3317525141738245, lon_x=103.78792909118908, lat_y=1.335661613, lon_y=103.7833991)",1.182,8.183333333333334,WILBY BUKIT TIMAH
158,27713,1.2819045218277825,103.7850173479978,158,A,HAW PAR VILLA MRT STATION,1.281956887,103.781989,61,0.33670300436987644,"coordinate_pair(lat_x=1.2819045218277825, lon_x=103.7850173479978, lat_y=1.281956887, lon_y=103.781989)",0.909,5.783333333333333,65A PASIR PANJANG HILL
159,27901,1.312389858790703,103.90914582627104,159,A,KEMBANGAN MRT STATION,1.321038134,103.9129479,13,1.0504289666628002,"coordinate_pair(lat_x=1.312389858790703, lon_x=103.90914582627104, lat_y=1.321038134, lon_y=103.9129479)",1.877,12.05,K-LODGE
160,28043,1.308042208306848,103.89405968824182,160,A,DAKOTA MRT STATION,1.308547984,103.8890647,3,0.5581133582735955,"coordinate_pair(lat_x=1.308042208306848, lon_x=103.89405968824182, lat_y=1.308547984, lon_y=103.8890647)",0.903,5.733333333333333,14 WAREHAM ROAD
161,28218,1.304705872617939,103.90199668020183,161,A,DAKOTA MRT STATION,1.308547984,103.8890647,3,1.4997346349667624,"coordinate_pair(lat_x=1.304705872617939, lon_x=103.90199668020183, lat_y=1.308547984, lon_y=103.8890647)",1.899,11.733333333333333,THE ODEON KATONG
162,28439,1.3548061147518156,103.86092698530769,162,A,LORONG CHUAN MRT STATION,1.351639278,103.8639457,135,0.4864242515066095,"coordinate_pair(lat_x=1.3548061147518156, lon_x=103.86092698530769, lat_y=1.351639278, lon_y=103.8639457)",0.858,5.45,GOLDENHILL VILLAS
163,28530,1.3484237583571097,103.88424849776806,163,A,BARTLEY MRT STATION,1.342501178,103.8801779,70,0.7990389495596837,"coordinate_pair(lat_x=1.3484237583571097, lon_x=103.88424849776806, lat_y=1.342501178, lon_y=103.8801779)",1.623,10.333333333333334,39 TAI KENG GARDENS
164,28780,1.3628956558267107,103.885830136968,164,A,KOVAN MRT STATION,1.360179171,103.8850649,134,0.31380908122226037,"coordinate_pair(lat_x=1.3628956558267107, lon_x=103.885830136968, lat_y=1.360179171, lon_y=103.8850649)",0.403,2.683333333333333,KOVAN REGENCY
165,28880,1.3394325398378593,103.88455337338797,165,A,BARTLEY MRT STATION,1.342501178,103.8801779,70,0.5941475165886777,"coordinate_pair(lat_x=1.3394325398378593, lon_x=103.88455337338797, lat_y=1.342501178, lon_y=103.8801779)",1.005,6.333333333333333,29 LORONG PAYA LEBAR
166,29052,1.368333161386287,103.86524029867807,166,A,ANG MO KIO MRT STATION,1.369428557,103.8494552,52,1.7589442931739008,"coordinate_pair(lat_x=1.368333161386287, lon_x=103.86524029867807, lat_y=1.369428557, lon_y=103.8494552)",2.105,13.9,SERANGOON GARDEN ESTATE
167,29365,1.326553506739198,103.79224880357177,167,A,SIXTH AVENUE MRT STATION,1.330857645,103.7969068,26,0.7051097348847213,"coordinate_pair(lat_x=1.326553506739198, lon_x=103.79224880357177, lat_y=1.330857645, lon_y=103.7969068)",0.932,5.8,GARLICK VILLE
168,29408,1.3227765030898124,103.95627599380826,168,A,BEDOK MRT STATION,1.320401487,103.9571838,36,0.28271460703818535,"coordinate_pair(lat_x=1.3227765030898124, lon_x=103.95627599380826, lat_y=1.320401487, lon_y=103.9571838)",0.706,4.916666666666667,28 EASTWOOD GREEN
169,29719,1.403420174210462,103.81516609072077,169,A,SPRINGLEAF MRT STATION,1.397581061,103.8178569,155,0.7148664023312364,"coordinate_pair(lat_x=1.403420174210462, lon_x=103.81516609072077, lat_y=1.397581061, lon_y=103.8178569)",1.148,7.683333333333334,MANDAI GARDEN
170,29839,1.3445885597061649,103.86275365535448,170,A,LORONG CHUAN MRT STATION,1.351639278,103.8639457,135,0.7951239090925167,"coordinate_pair(lat_x=1.3445885597061649, lon_x=103.86275365535448, lat_y=1.351639278, lon_y=103.8639457)",1.384,8.966666666666667,BRADDELL HEIGHTS ESTATE
171,30091,1.3433287301094528,103.96064139428341,171,A,UPPER CHANGI MRT STATION,1.341739774,103.9614728,82,0.19939695293622808,"coordinate_pair(lat_x=1.3433287301094528, lon_x=103.96064139428341, lat_y=1.341739774, lon_y=103.9614728)",0.431,2.8833333333333333,47 MERAGI ROAD
172,30143,1.304243536524181,103.89504864026976,172,A,DAKOTA MRT STATION,1.308547984,103.8890647,3,0.8195088480453887,"coordinate_pair(lat_x=1.304243536524181, lon_x=103.89504864026976, lat_y=1.308547984, lon_y=103.8890647)",1.246,7.766666666666667,26 BRANKSOME ROAD
173,30428,1.3173670598407832,103.94184566138084,173,A,TANAH MERAH MRT STATION,1.327310982,103.9464517,171,1.2185151894989823,"coordinate_pair(lat_x=1.3173670598407832, lon_x=103.94184566138084, lat_y=1.327310982, lon_y=103.9464517)",3.66,22.85,7 WILTSHIRE ROAD
174,30602,1.3228266859877702,103.8025085883858,174,A,TAN KAH KEE MRT STATION,1.326392241,103.8065482,172,0.5990396329005849,"coordinate_pair(lat_x=1.3228266859877702, lon_x=103.8025085883858, lat_y=1.326392241, lon_y=103.8065482)",1.3,8.033333333333333,CORONATION GROVE
175,30645,1.380916573868064,103.89269308774468,175,A,BUANGKOK MRT STATION,1.38287002,103.8931226,114,0.2223988953382133,"coordinate_pair(lat_x=1.380916573868064, lon_x=103.89269308774468, lat_y=1.38287002, lon_y=103.8931226)",0.226,1.4166666666666667,JEWEL @ BUANGKOK
176,30855,1.381868891930704,103.86984538782114,176,A,FERNVALE LRT STATION,1.391885892,103.8763086,112,1.325455332775725,"coordinate_pair(lat_x=1.381868891930704, lon_x=103.86984538782114, lat_y=1.391885892, lon_y=103.8763086)",3.532,23.05,BELGRAVIA PARK
177,31040,1.320598459958558,103.79747517572352,177,A,HOLLAND VILLAGE MRT STATION,1.312240296,103.7963991,56,0.9370522055759712,"coordinate_pair(lat_x=1.320598459958558, lon_x=103.79747517572352, lat_y=1.312240296, lon_y=103.7963991)",1.202,8.166666666666666,BIN TONG PARK
178,31178,1.4387862182555462,103.82696331794833,178,A,CANBERRA MRT STATION,1.443076641,103.8297026,157,0.5659663231735564,"coordinate_pair(lat_x=1.4387862182555462, lon_x=103.82696331794833, lat_y=1.443076641, lon_y=103.8297026)",2.884,18.716666666666665,SEMBAWANG SPRINGS ESTATE
179,31325,1.4442233028584144,103.807020253402,179,A,ADMIRALTY MRT STATION,1.440588562,103.8009905,12,0.7826908884149876,"coordinate_pair(lat_x=1.4442233028584144, lon_x=103.807020253402, lat_y=1.440588562, lon_y=103.8009905)",0.83,4.983333333333333,WOODLANDS AVENUE 7
180,31549,1.3170717371842195,103.90791930392396,180,A,EUNOS MRT STATION,1.319783549,103.9032258,46,0.6026235705007521,"coordinate_pair(lat_x=1.3170717371842195, lon_x=103.90791930392396, lat_y=1.319783549, lon_y=103.9032258)",1.908,12.533333333333333,RESIDENCE 81
181,31772,1.3751930328217437,103.82785725946164,181,A,MAYFLOWER MRT STATION,1.371463188,103.8365678,174,1.0533727079790363,"coordinate_pair(lat_x=1.3751930328217437, lon_x=103.82785725946164, lat_y=1.371463188, lon_y=103.8365678)",1.717,11.066666666666666,SEMBAWANG HILLS ESTATE
182,31929,1.3479548489760647,103.78929050015633,182,A,KING ALBERT PARK MRT STATION,1.335661613,103.7833991,63,1.5157349697594826,"coordinate_pair(lat_x=1.3479548489760647, lon_x=103.78929050015633, lat_y=1.335661613, lon_y=103.7833991)",2.45,15.95,GREENBANK PARK
183,32032,1.3449881295428856,103.76700918075203,183,A,BEAUTY WORLD MRT STATION,1.34090149,103.7757467,73,1.0723419376355572,"coordinate_pair(lat_x=1.3449881295428856, lon_x=103.76700918075203, lat_y=1.34090149, lon_y=103.7757467)",1.397,8.7,JURONG PARK
184,32212,1.3113032825751663,103.85939778353173,184,A,BENDEMEER MRT STATION,1.313672528,103.8629776,140,0.47725409675324676,"coordinate_pair(lat_x=1.3113032825751663, lon_x=103.85939778353173, lat_y=1.313672528, lon_y=103.8629776)",0.763,5.65,302 @ BESAR
185,32437,1.284313056366417,103.83204426623728,185,A,HAVELOCK MRT STATION,1.28850524,103.8335858,161,0.4966510197375182,"coordinate_pair(lat_x=1.284313056366417, lon_x=103.83204426623728, lat_y=1.28850524, lon_y=103.8335858)",0.67,6.25,TIONG BAHRU MARKET
186,32696,1.3171052203650304,103.82753213031064,186,A,STEVENS MRT STATION,1.320065558,103.8260244,24,0.3693889076047517,"coordinate_pair(lat_x=1.3171052203650304, lon_x=103.82753213031064, lat_y=1.320065558, lon_y=103.8260244)",0.636,4.2,PARC STEVENS
187,32862,1.3620374481185893,103.87176618922462,187,A,SERANGOON MRT STATION,1.350633615,103.8727717,31,1.2729653054820196,"coordinate_pair(lat_x=1.3620374481185893, lon_x=103.87176618922462, lat_y=1.350633615, lon_y=103.8727717)",1.772,10.783333333333333,12A BRIGHTON AVENUE
188,33008,1.3021463117626684,103.82222868393043,188,A,ORCHARD MRT STATION,1.302422248,103.8238685,152,0.18485629380969518,"coordinate_pair(lat_x=1.3021463117626684, lon_x=103.82222868393043, lat_y=1.302422248, lon_y=103.8238685)",0.261,2.183333333333333,8A ROCHALIE DRIVE
189,33148,1.3103966885794467,103.8764983876758,189,A,KALLANG MRT STATION,1.31148891,103.8713865,121,0.5811003212565365,"coordinate_pair(lat_x=1.3103966885794467, lon_x=103.8764983876758, lat_y=1.31148891, lon_y=103.8713865)",0.844,5.316666666666666,38 LORONG 6 GEYLANG
190,33305,1.3806538510657176,103.87380606302484,190,A,FERNVALE LRT STATION,1.391885892,103.8763086,112,1.2795524909013978,"coordinate_pair(lat_x=1.3806538510657176, lon_x=103.87380606302484, lat_y=1.391885892, lon_y=103.8763086)",3.279,21.183333333333334,LUXUS HILLS
191,33529,1.3137121672307384,103.84648776211468,191,A,NOVENA MRT STATION,1.320440791,103.8438256,34,0.804591465275718,"coordinate_pair(lat_x=1.3137121672307384, lon_x=103.84648776211468, lat_y=1.320440791, lon_y=103.8438256)",1.414,10.233333333333333,97 KENG LEE ROAD
192,33649,1.3070446666922102,103.9071128256958,192,A,EUNOS MRT STATION,1.319783549,103.9032258,46,1.4809400743009962,"coordinate_pair(lat_x=1.3070446666922102, lon_x=103.9071128256958, lat_y=1.319783549, lon_y=103.9032258)",3.481,22.283333333333335,204 EAST COAST ROAD
193,33782,1.3389149680289845,103.76585547488712,193,A,BEAUTY WORLD MRT STATION,1.34090149,103.7757467,73,1.1215214628508068,"coordinate_pair(lat_x=1.3389149680289845, lon_x=103.76585547488712, lat_y=1.34090149, lon_y=103.7757467)",1.323,8.116666666666667,TOH TUCK GARDEN
194,33955,1.3456004700428743,103.87643699844077,194,A,BARTLEY MRT STATION,1.342501178,103.8801779,70,0.540094445124946,"coordinate_pair(lat_x=1.3456004700428743, lon_x=103.87643699844077, lat_y=1.342501178, lon_y=103.8801779)",1.019,6.566666666666666,22 LORONG GAMBIR
195,34205,1.3631412083066248,103.8762838879448,195,A,KOVAN MRT STATION,1.360179171,103.8850649,134,1.030197421419733,"coordinate_pair(lat_x=1.3631412083066248, lon_x=103.8762838879448, lat_y=1.360179171, lon_y=103.8850649)",1.241,8.05,ROSYTH TERRACE
196,34387,1.3888815481445471,103.83914767560448,196,A,LENTOR MRT STATION,1.38550658,103.8357438,153,0.5329241044076801,"coordinate_pair(lat_x=1.3888815481445471, lon_x=103.83914767560448, lat_y=1.38550658, lon_y=103.8357438)",0.866,5.6,23 COUNTRYSIDE GROVE
197,34513,1.3164323428493838,103.75514655229908,197,A,CLEMENTI MRT STATION,1.315116253,103.7651915,40,1.1262013189114695,"coordinate_pair(lat_x=1.3164323428493838, lon_x=103.75514655229908, lat_y=1.315116253, lon_y=103.7651915)",6.627,41.5,WEST COAST GARDENS
198,34655,1.3485139215511215,103.88055684579174,198,A,BARTLEY MRT STATION,1.342501178,103.8801779,70,0.6699123431658018,"coordinate_pair(lat_x=1.3485139215511215, lon_x=103.88055684579174, lat_y=1.342501178, lon_y=103.8801779)",1.625,9.9,LLYN GARDENS
199,34889,1.359130832295088,103.75997516339044,199,A,HILLVIEW MRT STATION,1.362344868,103.7674183,72,0.901290040192332,"coordinate_pair(lat_x=1.359130832295088, lon_x=103.75997516339044, lat_y=1.362344868, lon_y=103.7674183)",1.275,8.683333333333334,HILLVIEW GARDEN ESTATE
200,35137,1.3530383242098152,103.87566053739148,200,A,SERANGOON MRT STATION,1.350633615,103.8727717,31,0.41788235554593645,"coordinate_pair(lat_x=1.3530383242098152, lon_x=103.87566053739148, lat_y=1.350633615, lon_y=103.8727717)",0.687,4.3,PAYA LEBAR METHODIST CHURCH
201,35300,1.2953405866904608,103.82111198772716,201,A,REDHILL MRT STATION,1.289634534,103.816741,37,0.7991724918939415,"coordinate_pair(lat_x=1.2953405866904608, lon_x=103.82111198772716, lat_y=1.289634534, lon_y=103.816741)",1.449,9.3,MOUNT ECHO PARK
202,35506,1.2820690443978917,103.84846956995324,202,A,TELOK AYER MRT STATION,1.282068948,103.8486488,83,0.019924485651672322,"coordinate_pair(lat_x=1.2820690443978917, lon_x=103.84846956995324, lat_y=1.282068948, lon_y=103.8486488)",0.043,0.7166666666666667,TELOK AYER MRT STATION
203,35667,1.4019797026378915,103.8977527489548,203,A,SOO TECK LRT STATION,1.405323319,103.8972905,28,0.3753272087723764,"coordinate_pair(lat_x=1.4019797026378915, lon_x=103.8977527489548, lat_y=1.405323319, lon_y=103.8972905)",0.925,6.0,TWIN WATERFALLS
204,35873,1.3851503015277307,103.85978366905064,204,A,YIO CHU KANG MRT STATION,1.381498825,103.8451707,79,1.6743891966265292,"coordinate_pair(lat_x=1.3851503015277307, lon_x=103.85978366905064, lat_y=1.381498825, lon_y=103.8451707)",6.723,42.4,MIMOSA TERRACE
205,35955,1.3672050429672327,103.88100399606049,205,A,KOVAN MRT STATION,1.360179171,103.8850649,134,0.9022868975738267,"coordinate_pair(lat_x=1.3672050429672327, lon_x=103.88100399606049, lat_y=1.360179171, lon_y=103.8850649)",1.239,8.216666666666667,POH HUAT GARDENS
206,36093,1.299960338534628,103.89559618353108,206,A,DAKOTA MRT STATION,1.308547984,103.8890647,3,1.1995960483642267,"coordinate_pair(lat_x=1.299960338534628, lon_x=103.89559618353108, lat_y=1.308547984, lon_y=103.8890647)",1.661,10.266666666666667,SEA VIEW PARK
207,36268,1.313565514601674,103.88772647647792,207,A,DAKOTA MRT STATION,1.308547984,103.8890647,3,0.577416721445827,"coordinate_pair(lat_x=1.313565514601674, lon_x=103.88772647647792, lat_y=1.308547984, lon_y=103.8890647)",0.742,5.45,GEYLANG CONSERVATION AREA
208,36487,1.3865386659815273,103.83726158588952,208,A,LENTOR MRT STATION,1.38550658,103.8357438,153,0.2040518602932266,"coordinate_pair(lat_x=1.3865386659815273, lon_x=103.83726158588952, lat_y=1.38550658, lon_y=103.8357438)",0.235,1.5833333333333333,PRESIDENT GARDENS
209,36636,1.2745232841824559,103.82499033262059,209,A,HARBOURFRONT MRT STATION,1.265389384,103.8215302,129,1.0860435827584634,"coordinate_pair(lat_x=1.2745232841824559, lon_x=103.82499033262059, lat_y=1.265389384, lon_y=103.8215302)",1.799,11.016666666666667,BUKIT PURMEI AVENUE
210,36917,1.3554534105218348,103.83403603055024,210,A,UPPER THOMSON MRT STATION,1.354416434,103.8328985,173,0.17113085482546173,"coordinate_pair(lat_x=1.3554534105218348, lon_x=103.83403603055024, lat_y=1.354416434, lon_y=103.8328985)",0.552,3.6333333333333333,KELIVILLE
211,36954,1.3718599491208627,103.76560193175244,211,A,CASHEW MRT STATION,1.369815449,103.7644392,75,0.26151269359422247,"coordinate_pair(lat_x=1.3718599491208627, lon_x=103.76560193175244, lat_y=1.369815449, lon_y=103.7644392)",0.577,3.683333333333333,HAZEL PARK TERRACE
212,37187,1.381498598225446,103.83771015306952,212,A,LENTOR MRT STATION,1.38550658,103.8357438,153,0.4963855147800196,"coordinate_pair(lat_x=1.381498598225446, lon_x=103.83771015306952, lat_y=1.38550658, lon_y=103.8357438)",0.822,5.083333333333333,CHIP THYE GARDEN
213,37442,1.3577712859000868,103.826394692027,213,A,UPPER THOMSON MRT STATION,1.354416434,103.8328985,173,0.8135552938008401,"coordinate_pair(lat_x=1.3577712859000868, lon_x=103.826394692027, lat_y=1.354416434, lon_y=103.8328985)",1.323,9.333333333333334,WINDSOR PARK
214,37496,1.3146191641614215,103.7798088795728,214,A,DOVER MRT STATION,1.311405293,103.7786378,6,0.3803398875107344,"coordinate_pair(lat_x=1.3146191641614215, lon_x=103.7798088795728, lat_y=1.311405293, lon_y=103.7786378)",3.131,19.266666666666666,HOLLAND GROVE PARK
215,37799,1.4313761188669467,103.84018889548966,215,A,YISHUN MRT STATION,1.429443085,103.835005,78,0.6150260337570738,"coordinate_pair(lat_x=1.4313761188669467, lon_x=103.84018889548966, lat_y=1.429443085, lon_y=103.835005)",1.016,7.116666666666666,YISHUN RIVERGREEN
216,37939,1.337524911991521,103.95283515081172,216,A,SIMEI MRT STATION,1.343197079,103.9533772,30,0.6335880200065005,"coordinate_pair(lat_x=1.337524911991521, lon_x=103.95283515081172, lat_y=1.343197079, lon_y=103.9533772)",1.466,9.616666666666667,SEA BREEZE TERRACE
217,37994,1.3614882756558435,103.83389524273204,217,A,BRIGHT HILL MRT STATION,1.363846766,103.8338992,154,0.26225252975892127,"coordinate_pair(lat_x=1.3614882756558435, lon_x=103.83389524273204, lat_y=1.363846766, lon_y=103.8338992)",0.586,3.65,FULTON HILL
218,38230,1.360761126784482,103.89009368546633,218,A,KOVAN MRT STATION,1.360179171,103.8850649,134,0.562750706873313,"coordinate_pair(lat_x=1.360761126784482, lon_x=103.89009368546633, lat_y=1.360179171, lon_y=103.8850649)",0.641,3.95,80 TAMPINES ROAD
219,38404,1.336179848543653,103.78825966134512,219,A,KING ALBERT PARK MRT STATION,1.335661613,103.7833991,63,0.5433870158666922,"coordinate_pair(lat_x=1.336179848543653, lon_x=103.78825966134512, lat_y=1.335661613, lon_y=103.7833991)",0.92,6.7,HOCK SENG PARK
220,38611,1.3726849027319676,103.94182140305364,220,A,PASIR RIS MRT STATION,1.37300805,103.9492651,11,0.8282435569299987,"coordinate_pair(lat_x=1.3726849027319676, lon_x=103.94182140305364, lat_y=1.37300805, lon_y=103.9492651)",2.281,14.7,ELIAS TERRACE
221,38828,1.3300369157585403,103.94532447060584,221,A,TANAH MERAH MRT STATION,1.327310982,103.9464517,171,0.3279906891133644,"coordinate_pair(lat_x=1.3300369157585403, lon_x=103.94532447060584, lat_y=1.327310982, lon_y=103.9464517)",0.475,3.966666666666667,TANAH MERAH GREEN
222,38914,1.3595385764335552,103.76810036556058,222,A,HILLVIEW MRT STATION,1.362344868,103.7674183,72,0.3211247753904977,"coordinate_pair(lat_x=1.3595385764335552, lon_x=103.76810036556058, lat_y=1.362344868, lon_y=103.7674183)",0.615,7.766666666666667,FUYONG ESTATE
223,39101,1.3083178202809012,103.91192538444812,223,A,KEMBANGAN MRT STATION,1.321038134,103.9129479,13,1.4189943926412911,"coordinate_pair(lat_x=1.3083178202809012, lon_x=103.91192538444812, lat_y=1.321038134, lon_y=103.9129479)",2.169,13.233333333333333,8 JALAN SOTONG
224,39340,1.3325979301735444,103.80060825629204,224,A,SIXTH AVENUE MRT STATION,1.330857645,103.7969068,26,0.45470392510636215,"coordinate_pair(lat_x=1.3325979301735444, lon_x=103.80060825629204, lat_y=1.330857645, lon_y=103.7969068)",0.605,4.716666666666667,ORCHID VILLAGE
225,39451,1.3190968983375064,103.91542623588852,225,A,KEMBANGAN MRT STATION,1.321038134,103.9129479,13,0.34999536914921053,"coordinate_pair(lat_x=1.3190968983375064, lon_x=103.91542623588852, lat_y=1.321038134, lon_y=103.9129479)",0.665,4.483333333333333,FRANKEL ESTATE
226,39637,1.380960450222908,103.83018256041952,226,A,LENTOR MRT STATION,1.38550658,103.8357438,153,0.7985674020280934,"coordinate_pair(lat_x=1.380960450222908, lon_x=103.83018256041952, lat_y=1.38550658, lon_y=103.8357438)",1.229,7.733333333333333,PEIRCE VALE
227,39870,1.297006289637633,103.87133176241242,227,A,STADIUM MRT STATION,1.302812468,103.8753377,25,0.7843064953040708,"coordinate_pair(lat_x=1.297006289637633, lon_x=103.87133176241242, lat_y=1.302812468, lon_y=103.8753377)",1.685,10.5,SANCTUARY GREEN
228,39946,1.3055679312724704,103.77816936990865,228,A,DOVER MRT STATION,1.311405293,103.7786378,6,0.6511704807667409,"coordinate_pair(lat_x=1.3055679312724704, lon_x=103.77816936990865, lat_y=1.311405293, lon_y=103.7786378)",1.464,9.333333333333334,SINGAPORE - MAIN ISLAND
229,40242,1.3536766361882222,103.83788371846629,229,A,UPPER THOMSON MRT STATION,1.354416434,103.8328985,173,0.5602484021323578,"coordinate_pair(lat_x=1.3536766361882222, lon_x=103.83788371846629, lat_y=1.354416434, lon_y=103.8328985)",0.762,5.1,THOMSON GARDEN ESTATE
230,40326,1.3155150701534672,103.92917411596316,230,A,KEMBANGAN MRT STATION,1.321038134,103.9129479,13,1.9054767099831647,"coordinate_pair(lat_x=1.3155150701534672, lon_x=103.92917411596316, lat_y=1.321038134, lon_y=103.9129479)",5.474,34.85,27A WOO MON CHEW ROAD
231,40514,1.3580593898378126,103.86816092332832,231,A,LORONG CHUAN MRT STATION,1.351639278,103.8639457,135,0.8539307788733088,"coordinate_pair(lat_x=1.3580593898378126, lon_x=103.86816092332832, lat_y=1.351639278, lon_y=103.8639457)",1.158,7.016666666666667,CALTEX LORONG CHUAN
232,40680,1.3585802034089478,103.87918805081333,232,A,KOVAN MRT STATION,1.360179171,103.8850649,134,0.6770539931020614,"coordinate_pair(lat_x=1.3585802034089478, lon_x=103.87918805081333, lat_y=1.360179171, lon_y=103.8850649)",0.879,5.766666666666667,7 HIGHLAND CLOSE
233,40824,1.3148194947867664,103.9032593475772,233,A,EUNOS MRT STATION,1.319783549,103.9032258,46,0.551990242234606,"coordinate_pair(lat_x=1.3148194947867664, lon_x=103.9032593475772, lat_y=1.319783549, lon_y=103.9032258)",1.616,10.15,130 JOO CHIAT TERRACE
234,41026,1.3142884231339955,103.92415597995372,234,A,KEMBANGAN MRT STATION,1.321038134,103.9129479,13,1.4545436581718112,"coordinate_pair(lat_x=1.3142884231339955, lon_x=103.92415597995372, lat_y=1.321038134, lon_y=103.9129479)",2.622,16.566666666666666,EAST COAST PARK
235,41184,1.2975261824926945,103.83521091233624,235,A,GREAT WORLD MRT STATION,1.293316457,103.8339066,165,0.4900423609028815,"coordinate_pair(lat_x=1.2975261824926945, lon_x=103.83521091233624, lat_y=1.293316457, lon_y=103.8339066)",0.902,5.7,9B SAINT THOMAS WALK
236,41308,1.319857219889106,103.9493001112955,236,A,BEDOK MRT STATION,1.320401487,103.9571838,36,0.8784806339802222,"coordinate_pair(lat_x=1.319857219889106, lon_x=103.9493001112955, lat_y=1.320401487, lon_y=103.9571838)",1.122,7.033333333333333,18 KEW WALK
237,41551,1.3255839153702138,103.91276385912992,237,A,KEMBANGAN MRT STATION,1.321038134,103.9129479,13,0.5058816975207836,"coordinate_pair(lat_x=1.3255839153702138, lon_x=103.91276385912992, lat_y=1.321038134, lon_y=103.9129479)",0.933,6.016666666666667,FA SHI LIN TEMPLE
238,41693,1.3026351111760768,103.89189116237608,238,A,DAKOTA MRT STATION,1.308547984,103.8890647,3,0.728702758695037,"coordinate_pair(lat_x=1.3026351111760768, lon_x=103.89189116237608, lat_y=1.308547984, lon_y=103.8890647)",2.084,13.283333333333333,53 WILKINSON ROAD
239,41919,1.349703914250073,103.84433897748085,239,A,MARYMOUNT MRT STATION,1.348707263,103.8394231,136,0.5575931362796632,"coordinate_pair(lat_x=1.349703914250073, lon_x=103.84433897748085, lat_y=1.348707263, lon_y=103.8394231)",0.771,4.883333333333334,CLOVER PARK
240,42009,1.3382814633554496,103.92023467931612,240,A,BEDOK NORTH MRT STATION,1.334742117,103.9179783,150,0.4666936044043157,"coordinate_pair(lat_x=1.3382814633554496, lon_x=103.92023467931612, lat_y=1.334742117, lon_y=103.9179783)",0.576,3.5,ARCHIPELAGO
241,42264,1.3465501324681424,103.86681535630817,241,A,LORONG CHUAN MRT STATION,1.351639278,103.8639457,135,0.6496083824498308,"coordinate_pair(lat_x=1.3465501324681424, lon_x=103.86681535630817, lat_y=1.351639278, lon_y=103.8639457)",0.968,6.366666666666666,SERANGOON PARK
242,42439,1.3573260665436675,103.86155100911068,242,A,LORONG CHUAN MRT STATION,1.351639278,103.8639457,135,0.6860907567894773,"coordinate_pair(lat_x=1.3573260665436675, lon_x=103.86155100911068, lat_y=1.351639278, lon_y=103.8639457)",1.199,7.616666666666666,TAI HWAN GARDEN
243,42592,1.3089131451053215,103.85358052459118,243,A,JALAN BESAR MRT STATION,1.305171388,103.8552957,144,0.45767272948625004,"coordinate_pair(lat_x=1.3089131451053215, lon_x=103.85358052459118, lat_y=1.305171388, lon_y=103.8552957)",0.781,5.0,202 SERANGOON ROAD
244,42707,1.3361257328341551,103.77154402823405,244,A,BEAUTY WORLD MRT STATION,1.34090149,103.7757467,73,0.7072964873611511,"coordinate_pair(lat_x=1.3361257328341551, lon_x=103.77154402823405, lat_y=1.34090149, lon_y=103.7757467)",0.972,5.933333333333334,TOH YI COURT
245,42913,1.3226888135563333,103.77368411762122,245,A,CLEMENTI MRT STATION,1.315116253,103.7651915,40,1.265034809313438,"coordinate_pair(lat_x=1.3226888135563333, lon_x=103.77368411762122, lat_y=1.315116253, lon_y=103.7651915)",2.018,12.4,CLEMENTI GREEN
246,43114,1.3673933694733627,103.76939752286108,246,A,HILLVIEW MRT STATION,1.362344868,103.7674183,72,0.6029438417493516,"coordinate_pair(lat_x=1.3673933694733627, lon_x=103.76939752286108, lat_y=1.362344868, lon_y=103.7674183)",1.026,7.8,CHESTNUT-VILLE
247,43324,1.2985982266557208,103.88568707312866,247,A,MOUNTBATTEN MRT STATION,1.306201905,103.8825281,67,0.9155190929959768,"coordinate_pair(lat_x=1.2985982266557208, lon_x=103.88568707312866, lat_y=1.306201905, lon_y=103.8825281)",1.204,7.483333333333333,30B MEYER ROAD
248,43510,1.2800807868836714,103.78750720605692,248,A,PASIR PANJANG MRT STATION,1.276213522,103.7913503,55,0.6061680041387921,"coordinate_pair(lat_x=1.2800807868836714, lon_x=103.78750720605692, lat_y=1.276213522, lon_y=103.7913503)",0.827,6.283333333333333,CHWEE CHIAN VIEW
249,43664,1.3634394487245356,103.8609530753106,249,A,LORONG CHUAN MRT STATION,1.351639278,103.8639457,135,1.353634648704284,"coordinate_pair(lat_x=1.3634394487245356, lon_x=103.8609530753106, lat_y=1.351639278, lon_y=103.8639457)",2.015,12.85,SERANGOON GARDEN ESTATE
250,43923,1.3906784418213152,103.85149184961944,250,A,YIO CHU KANG MRT STATION,1.381498825,103.8451707,79,1.2392070566879314,"coordinate_pair(lat_x=1.3906784418213152, lon_x=103.85149184961944, lat_y=1.381498825, lon_y=103.8451707)",2.496,15.933333333333334,154 CACTUS ROAD
251,43986,1.2418998886436672,103.83753321162926,251,A,HARBOURFRONT MRT STATION,1.265389384,103.8215302,129,3.1602259066450906,"coordinate_pair(lat_x=1.2418998886436672, lon_x=103.83753321162926, lat_y=1.265389384, lon_y=103.8215302)",4.7,29.05,SANDY ISLAND
252,44179,1.338703621255397,103.78540541702836,252,A,KING ALBERT PARK MRT STATION,1.335661613,103.7833991,63,0.4051667596274098,"coordinate_pair(lat_x=1.338703621255397, lon_x=103.78540541702836, lat_y=1.335661613, lon_y=103.7833991)",1.088,7.616666666666666,HONG KONG PARK
253,44351,1.310478143793313,103.92022800033531,253,A,KEMBANGAN MRT STATION,1.321038134,103.9129479,13,1.4260952388904933,"coordinate_pair(lat_x=1.310478143793313, lon_x=103.92022800033531, lat_y=1.321038134, lon_y=103.9129479)",1.941,12.133333333333333,SEASIDE PARK
254,44545,1.3324398359467824,103.8805209317655,254,A,MATTAR MRT STATION,1.326876715,103.8832475,145,0.6888567074967368,"coordinate_pair(lat_x=1.3324398359467824, lon_x=103.8805209317655, lat_y=1.326876715, lon_y=103.8832475)",1.136,7.283333333333333,MACPHERSON GARDEN ESTATE
255,44729,1.323654135939252,103.85260111019562,255,A,NOVENA MRT STATION,1.320440791,103.8438256,34,1.0389092085838374,"coordinate_pair(lat_x=1.323654135939252, lon_x=103.85260111019562, lat_y=1.320440791, lon_y=103.8438256)",1.533,9.85,KIM KEAT GARDENS
256,44917,1.3312028128583335,103.87384450423824,256,A,POTONG PASIR MRT STATION,1.331879714,103.8690579,92,0.5373994926527469,"coordinate_pair(lat_x=1.3312028128583335, lon_x=103.87384450423824, lat_y=1.331879714, lon_y=103.8690579)",1.006,6.95,SENNETT ESTATE
257,45054,1.3334013898172872,103.779314492532,257,A,KING ALBERT PARK MRT STATION,1.335661613,103.7833991,63,0.5189787470195104,"coordinate_pair(lat_x=1.3334013898172872, lon_x=103.779314492532, lat_y=1.335661613, lon_y=103.7833991)",1.251,10.016666666666667,KING ALBERT PARK
258,45204,1.3174630672670815,103.80280331746371,258,A,FARRER ROAD MRT STATION,1.317439152,103.8073792,148,0.5086873701084507,"coordinate_pair(lat_x=1.3174630672670815, lon_x=103.80280331746371, lat_y=1.317439152, lon_y=103.8073792)",0.675,4.433333333333334,KING'S GARDEN
259,45380,1.3860192250822847,103.86738756686556,259,A,FERNVALE LRT STATION,1.391885892,103.8763086,112,1.1870070284013423,"coordinate_pair(lat_x=1.3860192250822847, lon_x=103.86738756686556, lat_y=1.391885892, lon_y=103.8763086)",1.98,12.6,SELETAR HILLS ESTATE
260,45507,1.3467447070969543,103.77580814598711,260,A,BEAUTY WORLD MRT STATION,1.34090149,103.7757467,73,0.6497720001536422,"coordinate_pair(lat_x=1.3467447070969543, lon_x=103.77580814598711, lat_y=1.34090149, lon_y=103.7757467)",0.717,5.183333333333334,LE WOOD
261,45824,1.355513464241288,103.9665754354028,261,A,TAMPINES EAST MRT STATION,1.356191483,103.9546345,21,1.3295389854312634,"coordinate_pair(lat_x=1.355513464241288, lon_x=103.9665754354028, lat_y=1.356191483, lon_y=103.9546345)",2.657,16.916666666666668,HEDGES PARK CONDOMINIUM
262,45936,1.3935448343113415,103.8815586668478,262,A,LAYAR LRT STATION,1.392079837,103.8800296,18,0.2354309672600646,"coordinate_pair(lat_x=1.3935448343113415, lon_x=103.8815586668478, lat_y=1.392079837, lon_y=103.8800296)",0.364,2.3,SENGKANG NEW TOWN
263,46166,1.3047611995335988,103.83909072108058,263,A,SOMERSET MRT STATION,1.300264167,103.8390858,29,0.5000475019356257,"coordinate_pair(lat_x=1.3047611995335988, lon_x=103.83909072108058, lat_y=1.300264167, lon_y=103.8390858)",1.237,8.1,EMERALD HILL CONSERVATION AREA
264,46228,1.4511564817941451,103.82976088884128,264,A,CANBERRA MRT STATION,1.443076641,103.8297026,157,0.8984606680335273,"coordinate_pair(lat_x=1.4511564817941451, lon_x=103.82976088884128, lat_y=1.443076641, lon_y=103.8297026)",1.317,8.316666666666666,CANBERRA STREET
265,46464,1.3648840919528644,103.86877077711804,265,A,LORONG CHUAN MRT STATION,1.351639278,103.8639457,135,1.567388573704047,"coordinate_pair(lat_x=1.3648840919528644, lon_x=103.86877077711804, lat_y=1.351639278, lon_y=103.8639457)",1.975,12.1,SERANGOON GARDEN ESTATE
266,46626,1.3211417093810458,103.92520412744956,266,A,KEMBANGAN MRT STATION,1.321038134,103.9129479,13,1.3625167356031438,"coordinate_pair(lat_x=1.3211417093810458, lon_x=103.92520412744956, lat_y=1.321038134, lon_y=103.9129479)",1.623,11.4,OPERA ESTATE
267,46819,1.3434787663344319,103.83813400028416,267,A,MARYMOUNT MRT STATION,1.348707263,103.8394231,136,0.5987827534003276,"coordinate_pair(lat_x=1.3434787663344319, lon_x=103.83813400028416, lat_y=1.348707263, lon_y=103.8394231)",0.836,5.75,WESTLAKE GARDENS
268,46901,1.3128822386089016,103.8785401488334,268,A,ALJUNIED MRT STATION,1.316432612,103.882906,9,0.6256211807365022,"coordinate_pair(lat_x=1.3128822386089016, lon_x=103.8785401488334, lat_y=1.316432612, lon_y=103.882906)",0.932,6.483333333333333,2 LORONG 15 GEYLANG
269,47224,1.3631559154305115,103.96577081570608,269,A,TAMPINES EAST MRT STATION,1.356191483,103.9546345,21,1.4602185297644878,"coordinate_pair(lat_x=1.3631559154305115, lon_x=103.96577081570608, lat_y=1.356191483, lon_y=103.9546345)",2.512,15.816666666666666,LOYANG VILLAS
270,47326,1.3234956754949063,103.907747221298,270,A,KEMBANGAN MRT STATION,1.321038134,103.9129479,13,0.6394642901011898,"coordinate_pair(lat_x=1.3234956754949063, lon_x=103.907747221298, lat_y=1.321038134, lon_y=103.9129479)",1.114,7.033333333333333,KEMBANGAN ESTATE
271,47481,1.2926587246321704,103.83973365789451,271,A,FORT CANNING MRT STATION,1.292481948,103.8443314,142,0.5114933479374448,"coordinate_pair(lat_x=1.2926587246321704, lon_x=103.83973365789451, lat_y=1.292481948, lon_y=103.8443314)",0.839,5.433333333333334,GAMBIER COURT
272,47655,1.3881563822047092,103.86077001200324,272,A,FERNVALE LRT STATION,1.391885892,103.8763086,112,1.776388561556172,"coordinate_pair(lat_x=1.3881563822047092, lon_x=103.86077001200324, lat_y=1.391885892, lon_y=103.8763086)",2.621,16.633333333333333,CAMELIA PARK
273,47929,1.2505623711772464,103.84557213443625,273,A,TANJONG PAGAR MRT STATION,1.276568292,103.8460067,170,2.8921299658990565,"coordinate_pair(lat_x=1.2505623711772464, lon_x=103.84557213443625, lat_y=1.276568292, lon_y=103.8460067)",8.194,50.766666666666666,CORAL ISLAND
274,48015,1.3153688683410698,103.79280701844966,274,A,HOLLAND VILLAGE MRT STATION,1.312240296,103.7963991,56,0.529598820123129,"coordinate_pair(lat_x=1.3153688683410698, lon_x=103.79280701844966, lat_y=1.312240296, lon_y=103.7963991)",0.959,6.166666666666667,OEI TIONG HAM PARK
